name,latitude,longitude,state,admin2_code,geonameid
Bay Minette,30.88296,-87.77305,AL,003,4046255
Edna,28.97859,-96.64609,TX,239,4046274
Henderson,32.15322,-94.79938,TX,401,4046332
Yorktown,37.23876,-76.50967,VA,199,4046946
Stockton,39.43807,-99.2651,KS,163,4048488
Paducah,37.08339,-88.60005,KY,145,4048662
Birmingham,33.52066,-86.80249,AL,073,4049979
Brewton,31.10518,-87.07219,AL,053,4051714
Butler,32.08959,-88.22197,AL,023,4052726
Camden,31.99098,-87.29055,AL,131,4053200
Carrollton,33.26169,-88.09503,AL,107,4053823
Centre,34.15204,-85.67885,AL,019,4054555
Centreville,32.9462,-87.11669,AL,007,4054566
Chatom,31.46517,-88.25446,AL,129,4054818
Clanton,32.83874,-86.62943,AL,021,4055577
Clayton,31.87822,-85.44966,AL,005,4055696
Columbiana,33.17817,-86.60721,AL,117,4056427
Cullman,34.17482,-86.84361,AL,043,4057835
Dadeville,32.83124,-85.76357,AL,123,4058027
Decatur,34.60593,-86.98334,AL,103,4058553
Dothan,31.22323,-85.39049,AL,069,4059102
Double Springs,34.14637,-87.40247,AL,133,4059162
Eutaw,32.84059,-87.88762,AL,063,4060991
Evergreen,31.4335,-86.95692,AL,035,4061064
Fayette,33.68455,-87.83085,AL,057,4061586
Florence,34.79981,-87.67725,AL,077,4062577
Fort Payne,34.44425,-85.71969,AL,049,4062861
Gadsden,34.01434,-86.00639,AL,055,4063619
Geneva,31.03296,-85.86382,AL,061,4063926
Greensboro,32.70415,-87.5955,AL,065,4065282
Greenville,31.8296,-86.61775,AL,013,4065302
Grove Hill,31.70877,-87.77722,AL,025,4065475
Guntersville,34.35823,-86.29446,AL,095,4065649
Hamilton,34.14232,-87.98864,AL,093,4065965
Hayneville,32.18403,-86.58025,AL,085,4066661
Heflin,33.64899,-85.58746,AL,029,4066793
Huntsville,34.7304,-86.58594,AL,089,4068590
Jasper,33.83122,-87.27751,AL,127,4069659
Lafayette,32.89985,-85.40106,AL,017,4071267
Linden,32.30625,-87.79807,AL,091,4072752
Livingston,32.5843,-88.18725,AL,119,4073383
Luverne,31.71655,-86.26385,AL,041,4073985
Marion,32.63235,-87.31917,AL,105,4074673
Mobile,30.69436,-88.04305,AL,097,4076598
Monroeville,31.52794,-87.32471,AL,099,4076725
Moulton,34.48121,-87.29335,AL,079,4077329
Opelika,32.64541,-85.37828,AL,081,4081644
Oneonta,33.94815,-86.47276,AL,009,4081671
Ozark,31.45906,-85.64049,AL,045,4081936
Phenix City,32.47098,-85.00077,AL,113,4082866
Prattville,32.46402,-86.4597,AL,001,4084796
Rockford,32.88957,-86.21969,AL,037,4086637
Russellville,34.50787,-87.72864,AL,059,4087313
Scottsboro,34.67231,-86.03415,AL,071,4088916
Selma,32.40736,-87.0211,AL,047,4089114
Talladega,33.43594,-86.1058,AL,121,4092788
Troy,31.80877,-85.96995,AL,109,4094163
Tuscaloosa,33.20984,-87.56917,AL,125,4094455
Tuscumbia,34.7312,-87.70253,AL,033,4094484
Tuskegee,32.42415,-85.69096,AL,087,4094490
Union Springs,32.14432,-85.71495,AL,011,4094975
Vernon,33.75705,-88.10892,AL,075,4095392
Wedowee,33.309,-85.48467,AL,111,4096712
Wetumpka,32.54374,-86.21191,AL,051,4097257
Arkadelphia,34.12093,-93.05378,AR,019,4099647
Arkansas City,33.60872,-91.20678,AR,041,4099673
Ash Flat,36.22396,-91.60848,AR,135,4099837
Ashdown,33.67429,-94.13131,AR,081,4099852
Augusta,35.28231,-91.36541,AR,147,4099952
Batesville,35.7698,-91.64097,AR,063,4100525
Benton,34.56454,-92.58683,AR,125,4101241
Bentonville,36.37285,-94.20882,AR,007,4101260
Camden,33.58456,-92.83433,AR,103,4104182
Clarendon,34.69315,-91.31374,AR,095,4105824
Clarksville,35.47147,-93.46657,AR,071,4105879
Clinton,35.59147,-92.46044,AR,141,4106074
Conway,35.0887,-92.4421,AR,045,4106458
De Queen,34.03789,-94.34132,AR,133,4107802
El Dorado,33.20763,-92.66627,AR,139,4109785
Fayetteville,36.06258,-94.15743,AR,143,4110486
Fordyce,33.81372,-92.41293,AR,039,4111319
Forrest City,35.00815,-90.78983,AR,123,4111382
Hamburg,33.22818,-91.79763,AR,003,4113607
Hampton,33.53789,-92.46988,AR,013,4113647
Harrisburg,35.56425,-90.71678,AR,111,4113951
Harrison,36.22979,-93.10768,AR,009,4113956
Heber Springs,35.49147,-92.03126,AR,023,4114225
Helena,34.52955,-90.59177,AR,107,4114272
Hope,33.66706,-93.59157,AR,057,4115181
Hot Springs,34.5037,-93.05518,AR,051,4115412
Huntsville,36.08619,-93.7413,AR,087,4115658
Jasper,36.00813,-93.18657,AR,101,4116400
Lake Village,33.32873,-91.28178,AR,017,4118121
Lewisville,33.35846,-93.57768,AR,073,4118755
Lonoke,34.78398,-91.89986,AR,085,4119817
Magnolia,33.26707,-93.23933,AR,027,4120323
Malvern,34.36231,-92.81295,AR,059,4120388
Marianna,34.77371,-90.75761,AR,077,4120508
Marion,35.21453,-90.19648,AR,035,4120524
Marshall,35.90896,-92.63127,AR,129,4120611
Melbourne,36.05951,-91.90848,AR,065,4121256
Mena,34.58622,-94.23966,AR,113,4121297
Monticello,33.629,-91.79096,AR,043,4122015
Morrilton,35.15092,-92.74405,AR,029,4122218
Mount Ida,34.55676,-93.63408,AR,097,4122466
Mountain View,35.86841,-92.11765,AR,137,4122986
Mountain Home,36.33534,-92.38516,AR,005,4123037
Murfreesboro,34.06233,-93.6899,AR,109,4123162
Nashville,33.94567,-93.84713,AR,061,4123271
Newport,35.6048,-91.2818,AR,067,4123830
Paragould,36.0584,-90.49733,AR,055,4125388
Perryville,35.00481,-92.80267,AR,105,4125875
Pine Bluff,34.22843,-92.0032,AR,069,4126226
Pocahontas,36.26146,-90.97123,AR,121,4126923
Prescott,33.80261,-93.38101,AR,099,4127433
Rison,33.95843,-92.19015,AR,025,4128469
Russellville,35.27842,-93.13379,AR,115,4129397
Salem,36.37118,-91.82265,AR,049,4129962
Searcy,35.25064,-91.73625,AR,145,4130430
Sheridan,34.30704,-92.40127,AR,053,4130821
Star City,33.94288,-91.84347,AR,079,4132227
Texarkana,33.44179,-94.03769,AR,091,4133367
Van Buren,35.43676,-94.34827,AR,033,4134716
Waldron,34.89843,-94.09076,AR,127,4135004
Walnut Ridge,36.0684,-90.95595,AR,075,4135205
Warren,33.61261,-92.06458,AR,011,4135349
Wynne,35.22453,-90.78678,AR,037,4137215
Yellville,36.22618,-92.68489,AR,089,4137291
Georgetown,38.69011,-75.38547,DE,005,4142643
Wilmington,39.74595,-75.54659,DE,003,4145381
Apalachicola,29.726,-84.9856,FL,037,4146148
Arcadia,27.21588,-81.85842,FL,027,4146206
Bartow,27.89641,-81.84314,FL,105,4146723
Blountstown,30.44379,-85.04744,FL,013,4148237
Bonifay,30.79186,-85.67965,FL,059,4148526
Bradenton,27.49893,-82.57482,FL,081,4148708
Bristol,30.43247,-84.97702,FL,077,4148912
Bronson,29.44774,-82.64233,FL,075,4148957
Brooksville,28.55554,-82.38991,FL,053,4148986
Bunnell,29.46609,-81.25784,FL,035,4149363
Bushnell,28.66499,-82.11286,FL,119,4149433
Chipley,30.78186,-85.53854,FL,133,4150769
Clearwater,27.96585,-82.8001,FL,103,4151316
Crawfordville,30.17604,-84.37518,FL,129,4152267
Crestview,30.76213,-86.57051,FL,091,4152311
Cross City,29.63465,-83.12694,FL,029,4152395
Dade City,28.36472,-82.19592,FL,101,4152695
DeFuniak Springs,30.72102,-86.11522,FL,131,4152888
DeLand,29.02832,-81.30312,FL,127,4152890
Fernandina Beach,30.66968,-81.46259,FL,089,4155006
Fort Lauderdale,26.12231,-80.14338,FL,011,4155966
Fort Myers,26.62168,-81.84059,FL,071,4155995
Fort Pierce,27.44671,-80.32561,FL,111,4156018
Gainesville,29.65163,-82.32483,FL,001,4156404
Green Cove Springs,29.99191,-81.67815,FL,019,4157427
Inverness,28.83582,-82.33037,FL,017,4159786
Jacksonville,30.33218,-81.65565,FL,031,4160021
Jasper,30.51827,-82.94819,FL,047,4160102
Key West,24.55524,-81.78163,FL,087,4160812
Kissimmee,28.30468,-81.41667,FL,097,4160983
LaBelle,26.76173,-81.43841,FL,051,4161075
Lake Butler,30.02274,-82.33956,FL,125,4161171
Lake City,30.18968,-82.63929,FL,023,4161187
Live Oak,30.29495,-82.98402,FL,121,4162461
Macclenny,30.28218,-82.12206,FL,003,4163083
Madison,30.46938,-83.41293,FL,079,4163140
Marianna,30.77436,-85.22687,FL,063,4163428
Mayo,30.053,-83.17486,FL,067,4163723
Miami,25.77427,-80.19366,FL,086,4164138
Milton,30.63241,-87.03969,FL,113,4164547
Monticello,30.54515,-83.8713,FL,065,4164803
Moore Haven,26.83312,-81.09312,FL,043,4164836
Naples,26.14234,-81.79596,FL,021,4165565
Ocala,29.1872,-82.14009,FL,083,4166673
Okeechobee,27.24393,-80.82978,FL,093,4166822
Orlando,28.53834,-81.37924,FL,095,4167147
Palatka,29.64858,-81.63758,FL,107,4167482
Panama City,30.15946,-85.65983,FL,005,4167694
Pensacola,30.42131,-87.21691,FL,033,4168228
Perry,30.11766,-83.58274,FL,123,4168244
Port Saint Joe,29.81188,-85.30297,FL,045,4169166
Punta Gorda,26.92978,-82.04537,FL,015,4169452
Quincy,30.58714,-84.58325,FL,039,4169510
Saint Augustine,29.89469,-81.31452,FL,109,4170894
Sanford,28.80055,-81.27312,FL,117,4172086
Sarasota,27.33643,-82.53065,FL,115,4172131
Sebring,27.49559,-81.44091,FL,055,4172383
Starke,29.94413,-82.10983,FL,007,4173999
Stuart,27.19755,-80.25283,FL,085,4174201
Tampa,27.94752,-82.45843,FL,057,4174757
Tavares,28.80416,-81.72563,FL,069,4174861
Titusville,28.61222,-80.80755,FL,009,4175437
Trenton,29.61329,-82.81762,FL,041,4175637
Vero Beach,27.63864,-80.39727,FL,061,4176409
Wauchula,27.54726,-81.81147,FL,049,4177569
West Palm Beach,26.71534,-80.05337,FL,099,4177887
Abbeville,31.99212,-83.30682,GA,315,4178992
Adel,31.13727,-83.42408,GA,075,4179193
Alamo,32.14712,-82.77792,GA,309,4179313
Albany,31.57851,-84.15574,GA,095,4179320
Alma,31.53937,-82.46236,GA,005,4179557
Americus,32.07239,-84.23269,GA,261,4179667
Appling,33.54608,-82.3173,GA,073,4180085
Ashburn,31.70601,-83.65322,GA,287,4180316
Athens,33.96095,-83.37794,GA,059,4180386
Augusta,33.47097,-81.97484,GA,245,4180531
Bainbridge,30.9038,-84.57547,GA,087,4180775
Barnesville,33.05457,-84.15575,GA,171,4181110
Baxley,31.77825,-82.34846,GA,001,4181333
Blackshear,31.30605,-82.24207,GA,229,4183305
Blairsville,34.8762,-83.95824,GA,291,4183354
Blakely,31.37768,-84.93409,GA,099,4183363
Blue Ridge,34.86397,-84.32409,GA,111,4183521
Brunswick,31.14995,-81.49149,GA,127,4184845
Buchanan,33.8026,-85.18856,GA,143,4184962
Buena Vista,32.31904,-84.51714,GA,197,4185076
Butler,32.55709,-84.23825,GA,269,4185437
Cairo,30.87751,-84.20214,GA,131,4185632
Calhoun,34.50259,-84.95105,GA,129,4185657
Camilla,31.23129,-84.21046,GA,205,4185863
Canton,34.23676,-84.49076,GA,057,4186213
Carnesville,34.36983,-83.23516,GA,119,4186352
Carrollton,33.58011,-85.07661,GA,045,4186416
Cartersville,34.16533,-84.80231,GA,015,4186531
Cedartown,34.01123,-85.25593,GA,233,4186955
Chatsworth,34.76591,-84.76994,GA,213,4187435
Clarkesville,34.6126,-83.52489,GA,137,4188197
Claxton,32.16158,-81.904,GA,109,4188239
Clayton,34.87815,-83.40099,GA,241,4188287
Cleveland,34.59704,-83.76324,GA,311,4188377
Cochran,32.38683,-83.35461,GA,023,4188590
Colquitt,31.17129,-84.73325,GA,201,4188934
Columbus,32.46098,-84.98771,GA,215,4188985
Conyers,33.66761,-84.01769,GA,247,4189213
Cordele,31.96351,-83.78239,GA,081,4189423
Covington,33.59678,-83.86018,GA,217,4189785
Crawfordville,33.55402,-82.89598,GA,265,4189960
Cumming,34.20732,-84.14019,GA,117,4190396
Cusseta,32.30543,-84.7727,GA,053,4190434
Cuthbert,31.77127,-84.78937,GA,243,4190451
Dahlonega,34.53259,-83.98491,GA,187,4190542
Dalton,34.7698,-84.97022,GA,313,4190581
Dallas,33.92371,-84.84077,GA,223,4190598
Danielsville,34.12428,-83.22126,GA,195,4190721
Dawson,31.77382,-84.448,GA,273,4190953
Dawsonville,34.42121,-84.11908,GA,085,4190979
Decatur,33.77483,-84.29631,GA,089,4191124
Donalsonville,31.04046,-84.87909,GA,253,4191735
Douglas,31.50881,-82.84987,GA,069,4191916
Douglasville,33.7515,-84.74771,GA,097,4191955
Dublin,32.54044,-82.90375,GA,175,4192205
Eastman,32.19767,-83.17765,GA,091,4192754
Eatonton,33.3268,-83.3885,GA,237,4192800
Elberton,34.11159,-82.86863,GA,105,4193099
Ellaville,32.23821,-84.30908,GA,249,4193210
Ellijay,34.69481,-84.48215,GA,123,4193229
Fayetteville,33.44873,-84.45493,GA,113,4194474
Fitzgerald,31.71491,-83.25265,GA,017,4195168
Folkston,30.83095,-82.01131,GA,049,4195600
Forsyth,33.0343,-83.93824,GA,207,4195771
Fort Gaines,31.60924,-85.04933,GA,061,4195809
Fort Valley,32.55376,-83.88741,GA,225,4195869
Franklin,33.27762,-85.098,GA,149,4196083
Gainesville,34.29788,-83.82407,GA,139,4196586
Georgetown,31.88461,-85.10743,GA,239,4196919
Gibson,33.23348,-82.59541,GA,125,4197055
Gray,33.00958,-83.53378,GA,169,4197938
Greensboro,33.57568,-83.18238,GA,133,4198204
Greenville,33.02874,-84.71298,GA,199,4198218
Griffin,33.24678,-84.26409,GA,255,4198322
Hamilton,32.75791,-84.87493,GA,145,4198912
Hartwell,34.35288,-82.93209,GA,147,4199572
Hawkinsville,32.28377,-83.47212,GA,235,4199694
Hazlehurst,31.86963,-82.5943,GA,161,4199778
Hiawassee,34.94926,-83.75739,GA,281,4200188
Hinesville,31.84688,-81.59595,GA,179,4200671
Homer,34.33372,-83.49905,GA,011,4201141
Homerville,31.0366,-82.74708,GA,065,4201144
Irwinton,32.81126,-83.17265,GA,319,4202277
Jackson,33.29457,-83.96602,GA,035,4202426
Jasper,34.46787,-84.42909,GA,227,4202634
Jefferson,34.11705,-83.57239,GA,157,4202672
Jeffersonville,32.68765,-83.34656,GA,289,4202699
Jonesboro,33.5215,-84.35381,GA,063,4203316
Knoxville,32.72431,-83.99769,GA,079,4204196
LaFayette,34.7048,-85.2819,GA,295,4204241
Lakeland,31.04104,-83.07515,GA,173,4204775
Lawrenceville,33.95621,-83.98796,GA,135,4205196
Leesburg,31.73212,-84.17074,GA,177,4205392
Lexington,33.86984,-83.11182,GA,221,4205541
Lincolnton,33.79235,-82.47902,GA,181,4205797
Louisville,33.00154,-82.41124,GA,163,4206882
Ludowici,31.70799,-81.74234,GA,183,4207083
Lumpkin,32.05099,-84.79909,GA,259,4207128
Lyons,32.20435,-82.32179,GA,279,4207205
Macon,32.84069,-83.6324,GA,021,4207400
Madison,33.59568,-83.46794,GA,211,4207447
Marietta,33.9526,-84.54993,GA,067,4207783
McDonough,33.44734,-84.14686,GA,151,4208442
McRae,32.06795,-82.9007,GA,271,4208683
Metter,32.39712,-82.06012,GA,043,4209013
Milledgeville,33.08014,-83.2321,GA,009,4209448
Millen,32.80405,-81.94928,GA,165,4209454
Monroe,33.79484,-83.71323,GA,297,4209884
Monticello,33.30485,-83.68323,GA,159,4209951
Morgan,31.53767,-84.59936,GA,037,4210099
Moultrie,31.17991,-83.78906,GA,071,4210397
Mount Vernon,32.17851,-82.59458,GA,209,4211083
Nahunta,31.20439,-81.98123,GA,025,4211775
Nashville,31.20742,-83.25015,GA,019,4211839
Newnan,33.38067,-84.79966,GA,077,4212684
Newton,31.31296,-84.33574,GA,007,4212728
Ocilla,31.59447,-83.2513,GA,155,4213812
Oglethorpe,32.29377,-84.06102,GA,193,4213919
Pearson,31.2977,-82.85237,GA,003,4215163
Pembroke,32.13634,-81.62348,GA,029,4215251
Perry,32.45821,-83.73157,GA,153,4215391
Preston,32.06599,-84.53742,GA,307,4217343
Quitman,30.78492,-83.55988,GA,027,4217712
Reidsville,32.08686,-82.1179,GA,267,4218414
Ringgold,34.91591,-85.10912,GA,047,4218896
Rome,34.25704,-85.16467,GA,115,4219762
Sandersville,32.98154,-82.81014,GA,303,4221206
Savannah,32.08354,-81.09983,GA,051,4221552
Soperton,32.37712,-82.59236,GA,283,4223516
Sparta,33.2757,-82.97626,GA,141,4223880
Springfield,32.37241,-81.3115,GA,103,4224162
Statenville,30.70327,-83.02764,GA,101,4224412
Statesboro,32.44879,-81.78317,GA,031,4224413
Summerville,34.48064,-85.34773,GA,055,4225122
Swainsboro,32.59739,-82.33374,GA,107,4225346
Sylvania,32.75044,-81.63678,GA,251,4225515
Sylvester,31.53092,-83.83693,GA,321,4225522
Talbotton,32.67764,-84.53937,GA,263,4225613
Thomasville,30.83658,-83.97878,GA,275,4226348
Thomaston,32.88819,-84.32659,GA,293,4226364
Thomson,33.47069,-82.50457,GA,189,4226435
Tifton,31.45046,-83.5085,GA,277,4226552
Toccoa,34.57732,-83.33239,GA,257,4226722
Valdosta,30.83334,-83.28032,GA,185,4228147
Vienna,32.09156,-83.79545,GA,093,4228440
Warrenton,33.40708,-82.66208,GA,301,4229517
Washington,33.73679,-82.73931,GA,317,4229546
Watkinsville,33.8629,-83.40877,GA,219,4229691
Waycross,31.21368,-82.3557,GA,299,4229763
Waynesboro,33.08987,-82.01567,GA,033,4229791
Winder,33.99261,-83.72017,GA,013,4231523
Woodbine,30.96396,-81.72416,GA,039,4231725
Wrightsville,32.72933,-82.71986,GA,167,4232049
Zebulon,33.10235,-84.3427,GA,231,4232308
Albion,38.37755,-88.05615,IL,047,4232568
Benton,37.99672,-88.92007,IL,055,4233586
Belleville,38.52005,-89.98399,IL,163,4233813
Cairo,37.00533,-89.17646,IL,003,4234985
Carlinville,39.27977,-89.88177,IL,117,4235211
Carlyle,38.61033,-89.37258,IL,027,4235229
Carmi,38.09088,-88.15865,IL,193,4235246
Carrollton,39.30227,-90.40706,IL,061,4235288
Charleston,39.49615,-88.17615,IL,029,4235668
Chester,37.91366,-89.82205,IL,157,4235724
Decatur,39.84031,-88.9548,IL,115,4236895
Edwardsville,38.81144,-89.95316,IL,119,4237717
Effingham,39.12004,-88.54338,IL,049,4237727
Elizabethtown,37.44588,-88.30504,IL,069,4237790
Fairfield,38.37894,-88.35977,IL,191,4238081
Golconda,37.36727,-88.48643,IL,151,4239519
Greenville,38.89227,-89.41314,IL,005,4239867
Hardin,39.15671,-90.6179,IL,013,4240209
Harrisburg,37.73838,-88.54061,IL,165,4240284
Hillsboro,39.16128,-89.4954,IL,135,4240782
Jacksonville,39.73394,-90.22901,IL,137,4241704
Jerseyville,39.12005,-90.32845,IL,083,4241822
Jonesboro,37.45172,-89.26814,IL,181,4241992
Lawrenceville,38.72921,-87.68169,IL,101,4242769
Louisville,38.77227,-88.50255,IL,025,4243551
Marion,37.73061,-88.93313,IL,199,4243899
Marshall,39.39143,-87.69364,IL,023,4243951
McLeansboro,38.09338,-88.53561,IL,065,4244307
Metropolis,37.15117,-88.732,IL,127,4244462
Mound City,37.08533,-89.16257,IL,153,4244928
Mount Carmel,38.41088,-87.76142,IL,185,4244967
Mount Sterling,39.98727,-90.76346,IL,009,4245136
Mount Vernon,38.31727,-88.90312,IL,081,4245152
Murphysboro,37.7645,-89.33509,IL,077,4245336
Nashville,38.34366,-89.38064,IL,189,4245376
Olney,38.73088,-88.08532,IL,159,4246382
Paris,39.61115,-87.69614,IL,045,4246659
Pinckneyville,38.08033,-89.38203,IL,145,4246983
Pittsfield,39.60783,-90.80513,IL,149,4247060
Quincy,39.9356,-91.40987,IL,001,4247703
Robinson,39.00532,-87.73919,IL,033,4248256
Salem,38.62699,-88.94562,IL,121,4249286
Shawneetown,37.7131,-88.1867,IL,059,4249830
Shelbyville,39.40643,-88.79007,IL,173,4249857
Sullivan,39.59948,-88.60784,IL,139,4250862
Taylorville,39.54894,-89.29453,IL,021,4251141
Toledo,39.27365,-88.24365,IL,035,4251330
Tuscola,39.7992,-88.2831,IL,041,4251593
Vandalia,38.9606,-89.09368,IL,051,4251917
Vienna,37.41533,-88.89784,IL,087,4252025
Virginia,39.95116,-90.21234,IL,017,4252071
Waterloo,38.33589,-90.14983,IL,133,4252548
Winchester,39.62977,-90.45624,IL,171,4253268
Bedford,38.86116,-86.48721,IN,093,4254282
Bloomfield,39.02699,-86.93751,IN,055,4254671
Bloomington,39.16533,-86.52639,IN,105,4254679
Boonville,38.04921,-87.27417,IN,173,4254797
Brazil,39.52365,-87.12502,IN,021,4254884
Brookville,39.42311,-85.01274,IN,047,4254999
Brownstown,38.87894,-86.04192,IN,071,4255063
Columbus,39.20144,-85.92138,IN,005,4256038
Connersville,39.64116,-85.14107,IN,041,4256085
Corydon,38.21201,-86.12192,IN,061,4256184
Danville,39.7606,-86.52639,IN,063,4256447
English,38.3345,-86.46415,IN,025,4257173
Evansville,37.97476,-87.55585,IN,163,4257227
Greencastle,39.64449,-86.86473,IN,133,4258273
Greenfield,39.78504,-85.76942,IN,059,4258285
Greensburg,39.33727,-85.48358,IN,031,4258302
Jasper,38.39144,-86.93111,IN,037,4259640
Jeffersonville,38.27757,-85.73718,IN,019,4259671
Lawrenceburg,39.09089,-84.84995,IN,029,4260223
Liberty,39.6356,-84.93107,IN,161,4260329
Madison,38.73589,-85.37996,IN,077,4260853
Martinsville,39.42783,-86.42833,IN,109,4261032
Mount Vernon,37.93227,-87.89503,IN,129,4261837
Nashville,39.20727,-86.2511,IN,013,4261983
New Albany,38.28562,-85.82413,IN,043,4262045
New Castle,39.92894,-85.37025,IN,065,4262072
Newport,39.8842,-87.40863,IN,165,4262177
Paoli,38.55617,-86.46832,IN,117,4262762
Petersburg,38.49199,-87.27862,IN,125,4262968
Princeton,38.35532,-87.56752,IN,051,4263396
Richmond,39.82894,-84.89024,IN,177,4263681
Rising Sun,38.9495,-84.85384,IN,115,4263736
Rockville,39.76254,-87.22918,IN,121,4263850
Rockport,37.88311,-87.04944,IN,147,4263856
Rushville,39.60921,-85.44636,IN,139,4263965
Salem,38.60561,-86.10109,IN,175,4264334
Scottsburg,38.68561,-85.77025,IN,143,4264555
Shelbyville,39.52144,-85.77692,IN,145,4264688
Shoals,38.66644,-86.79111,IN,101,4264771
Spencer,39.28671,-86.76251,IN,119,4265147
Sullivan,39.09532,-87.40585,IN,153,4265507
Tell City,37.95144,-86.76777,IN,123,4265717
Terre Haute,39.4667,-87.41391,IN,167,4265737
Versailles,39.072,-85.2519,IN,137,4266266
Vevay,38.74784,-85.06717,IN,155,4266278
Vincennes,38.67727,-87.52863,IN,083,4266307
Washington,38.65922,-87.17279,IN,027,4266586
Abilene,38.91722,-97.21391,KS,041,4267354
Alma,39.01667,-96.28916,KS,197,4267513
Anthony,37.15336,-98.03117,KS,077,4267605
Ashland,37.18864,-99.76568,KS,025,4267710
Atchison,39.56305,-95.12164,KS,005,4267733
Belleville,39.82445,-97.63254,KS,157,4268091
Beloit,39.45612,-98.10616,KS,123,4268119
Burlington,38.19447,-95.74276,KS,031,4268854
Clay Center,39.37694,-97.12474,KS,027,4269642
Coldwater,37.26891,-99.32678,KS,033,4269802
Columbus,37.16923,-94.84412,KS,021,4269841
Concordia,39.57084,-97.66254,KS,029,4269872
Cottonwood Falls,38.37224,-96.54278,KS,017,4269988
Council Grove,38.66112,-96.49195,KS,127,4270001
El Dorado,37.81724,-96.86225,KS,015,4270863
Ellsworth,38.73056,-98.22811,KS,053,4270945
Emporia,38.4039,-96.18166,KS,111,4271086
Erie,37.56811,-95.24331,KS,133,4271131
Eureka,37.82392,-96.28917,KS,073,4271159
Fort Scott,37.83976,-94.7083,KS,011,4271690
Fredonia,37.53394,-95.82665,KS,205,4271796
Garnett,38.28058,-95.24192,KS,003,4271974
Girard,37.51116,-94.83802,KS,037,4272061
Great Bend,38.36446,-98.76481,KS,009,4272340
Greensburg,37.6028,-99.29261,KS,097,4272411
Hays,38.87918,-99.32677,KS,051,4272782
Hiawatha,39.8525,-95.53582,KS,013,4272873
Hill City,39.36473,-99.84206,KS,065,4272980
Holton,39.46527,-95.73637,KS,085,4273096
Howard,37.47031,-96.26361,KS,049,4273226
Hutchinson,38.06084,-97.92977,KS,155,4273299
Independence,37.22424,-95.70831,KS,125,4273359
Iola,37.92448,-95.39998,KS,001,4273441
Jetmore,38.08446,-99.89346,KS,083,4273616
Junction City,39.02861,-96.8314,KS,061,4273680
Kansas City,39.11417,-94.62746,KS,209,4273837
Kingman,37.64585,-98.11367,KS,095,4273978
Kinsley,37.92307,-99.40984,KS,047,4273993
La Crosse,38.5314,-99.30872,KS,165,4274067
Larned,38.18057,-99.09871,KS,145,4274249
Lawrence,38.97167,-95.23525,KS,045,4274277
Leavenworth,39.31111,-94.92246,KS,103,4274305
Lincoln,39.04084,-98.14477,KS,105,4274450
Lyndon,38.61001,-95.68443,KS,139,4274906
Lyons,38.34501,-98.20173,KS,159,4274927
Manhattan,39.18361,-96.57167,KS,161,4274994
Mankato,39.78723,-98.21005,KS,089,4275004
Marion,38.34835,-97.01725,KS,115,4275070
Marysville,39.84111,-96.64724,KS,117,4275144
McPherson,38.37084,-97.66421,KS,113,4275261
Medicine Lodge,37.28113,-98.58036,KS,007,4275315
Minneapolis,39.12194,-97.7067,KS,143,4275586
Mound City,38.14281,-94.81357,KS,107,4275784
Ness City,38.45279,-99.90651,KS,135,4276166
Newton,38.04668,-97.34504,KS,079,4276248
Norton,39.83389,-99.89151,KS,137,4276452
Olathe,38.8814,-94.81913,KS,091,4276614
Osborne,39.43914,-98.69624,KS,141,4276781
Oskaloosa,39.21528,-95.31275,KS,087,4276792
Oswego,37.16757,-95.10996,KS,099,4276800
Ottawa,38.61557,-95.26775,KS,059,4276816
Paola,38.57224,-94.87913,KS,121,4276956
Phillipsburg,39.75612,-99.32399,KS,147,4277177
Pratt,37.64391,-98.73759,KS,151,4277752
Russell,38.89527,-98.86103,KS,167,4278471
Saint John,38.00224,-98.76009,KS,185,4278621
Salina,38.84028,-97.61142,KS,169,4278890
Sedan,37.12672,-96.18694,KS,019,4279149
Seneca,39.83416,-96.06417,KS,131,4279170
Smith Center,39.77918,-98.78507,KS,183,4279474
Troy,39.78305,-95.08997,KS,043,4280660
WaKeeney,39.02501,-99.87957,KS,195,4281083
Washington,39.81806,-97.05086,KS,201,4281253
Wellington,37.2653,-97.37171,KS,191,4281386
Westmoreland,39.39389,-96.41361,KS,149,4281614
Wichita,37.69224,-97.33754,KS,173,4281730
Winfield,37.23975,-96.99559,KS,035,4281897
Yates Center,37.88115,-95.73332,KS,207,4282061
Albany,36.6909,-85.13468,KY,053,4282305
Barbourville,36.86648,-83.88881,KY,121,4283128
Bardstown,37.80923,-85.4669,KY,179,4283133
Bardwell,36.87061,-89.00979,KY,039,4283138
Beattyville,37.57175,-83.70686,KY,129,4283541
Bedford,38.59256,-85.31773,KY,223,4283606
Benton,36.85728,-88.35031,KY,157,4283953
Booneville,37.4762,-83.67491,KY,189,4285190
Bowling Green,36.99032,-86.4436,KY,227,4285268
Brandenburg,37.99896,-86.16941,KY,163,4285380
Brooksville,38.68257,-84.06576,KY,023,4285607
Brownsville,37.19255,-86.26775,KY,061,4285708
Burkesville,36.79034,-85.37052,KY,057,4286280
Burlington,39.02756,-84.72411,KY,015,4286281
Cadiz,36.86505,-87.8353,KY,221,4286479
Calhoun,37.53894,-87.25833,KY,149,4286519
Campbellsville,37.3434,-85.34191,KY,217,4286717
Campton,37.73425,-83.54741,KY,237,4286728
Carlisle,38.31202,-84.02743,KY,181,4286981
Carrollton,38.6809,-85.1794,KY,041,4287050
Catlettsburg,38.4048,-82.60044,KY,019,4287192
Clinton,36.66728,-88.9934,KY,105,4288062
Columbia,37.10284,-85.30635,KY,001,4288366
Cynthiana,38.39035,-84.2941,KY,097,4289323
Danville,37.64563,-84.77217,KY,021,4289445
Dixon,37.51782,-87.69029,KY,233,4289966
Eddyville,37.0945,-88.0803,KY,143,4290859
Edmonton,36.98006,-85.61219,KY,169,4290886
Elizabethtown,37.69395,-85.85913,KY,093,4290988
Elkton,36.81004,-87.15417,KY,219,4291079
Falmouth,38.67674,-84.33021,KY,191,4291501
Flemingsburg,38.4223,-83.73381,KY,069,4291905
Franklin,36.72226,-86.57722,KY,213,4292193
Frenchburg,37.95092,-83.62575,KY,165,4292308
Georgetown,38.2098,-84.55883,KY,209,4292686
Glasgow,36.99588,-85.91192,KY,009,4292826
Grayson,38.33258,-82.9485,KY,043,4293311
Greensburg,37.26089,-85.49885,KY,087,4293470
Greenup,38.57313,-82.83017,KY,089,4293473
Greenville,37.20115,-87.17889,KY,177,4293477
Hardinsburg,37.78006,-86.46053,KY,027,4294044
Harlan,36.84314,-83.32185,KY,095,4294072
Harrodsburg,37.7623,-84.84329,KY,167,4294180
Hartford,37.45116,-86.90916,KY,183,4294195
Hawesville,37.90006,-86.75499,KY,091,4294267
Hazard,37.24954,-83.19323,KY,193,4294349
Henderson,37.83615,-87.59001,KY,101,4294494
Hickman,36.57117,-89.18618,KY,075,4294625
Hindman,37.33593,-82.98044,KY,119,4294872
Hodgenville,37.57395,-85.73996,KY,123,4294937
Hopkinsville,36.86561,-87.49117,KY,047,4295251
Hyden,37.16093,-83.37324,KY,131,4295712
Inez,37.86648,-82.53876,KY,159,4295878
Irvine,37.70064,-83.97381,KY,065,4295954
Jackson,37.55315,-83.38351,KY,025,4296081
Jamestown,36.98479,-85.06301,KY,207,4296173
La Grange,38.40757,-85.37885,KY,185,4297238
Lancaster,37.61952,-84.578,KY,079,4297354
Lawrenceburg,38.0373,-84.89662,KY,005,4297581
Lebanon,37.56979,-85.25274,KY,155,4297653
Leitchfield,37.48005,-86.29386,KY,085,4297882
Lexington,37.98869,-84.47772,KY,067,4297983
Liberty,37.31841,-84.9394,KY,045,4298003
London,37.12898,-84.08326,KY,125,4298960
Louisa,38.11425,-82.60321,KY,127,4299275
Louisville,38.25424,-85.75941,KY,111,4299276
Madisonville,37.3281,-87.49889,KY,107,4299670
Manchester,37.1537,-83.76186,KY,051,4299741
Marion,37.33283,-88.08113,KY,055,4299842
Mayfield,36.74172,-88.63672,KY,083,4300105
Maysville,38.64119,-83.74437,KY,161,4300152
McKee,37.43036,-83.99798,KY,109,4300339
Monticello,36.82979,-84.84911,KY,231,4301224
Morehead,38.18397,-83.43268,KY,205,4301307
Morganfield,37.68338,-87.91669,KY,225,4301345
Morgantown,37.2256,-86.6836,KY,031,4301349
Mount Olivet,38.53146,-84.03687,KY,201,4301603
Mount Sterling,38.05647,-83.94326,KY,173,4301683
Mount Vernon,37.35286,-84.34049,KY,203,4301703
Munfordville,37.27228,-85.89108,KY,099,4302012
Murray,36.61033,-88.31476,KY,035,4302035
New Castle,38.4334,-85.16968,KY,103,4302338
Newport,39.09145,-84.49578,KY,037,4302529
Nicholasville,37.88063,-84.573,KY,113,4302561
Owensboro,37.77422,-87.11333,KY,059,4303436
Owenton,38.53672,-84.84338,KY,187,4303439
Owingsville,38.1448,-83.76408,KY,011,4303441
Paintsville,37.81454,-82.80711,KY,115,4303543
Paris,38.2098,-84.25299,KY,017,4303602
Pikeville,37.47927,-82.51876,KY,195,4304232
Pineville,36.76203,-83.69492,KY,013,4304396
Prestonsburg,37.66565,-82.77155,KY,071,4305210
Princeton,37.10922,-87.88196,KY,033,4305266
Richmond,37.74786,-84.29465,KY,151,4305974
Russellville,36.84532,-86.88722,KY,141,4307025
Salyersville,37.75259,-83.06878,KY,153,4307447
Sandy Hook,38.08647,-83.12628,KY,063,4307616
Scottsville,36.75338,-86.19054,KY,003,4307837
Shelbyville,38.21201,-85.22357,KY,211,4308122
Shepherdsville,37.9884,-85.71579,KY,029,4308163
Smithland,37.13894,-88.40337,KY,139,4308835
Somerset,37.09202,-84.60411,KY,199,4308922
Springfield,37.68534,-85.22218,KY,229,4309329
Stanford,37.53119,-84.66189,KY,137,4309487
Stanton,37.84564,-83.85825,KY,197,4309498
Taylorsville,38.03173,-85.34245,KY,215,4310638
Tompkinsville,36.70228,-85.69164,KY,171,4311035
Vanceburg,38.59924,-83.3188,KY,135,4311976
Versailles,38.05258,-84.72995,KY,239,4312057
Warsaw,38.7834,-84.90162,KY,077,4312734
West Liberty,37.92148,-83.25962,KY,175,4313038
Whitesburg,37.11843,-82.82683,KY,133,4313346
Whitley City,36.72341,-84.47049,KY,147,4313358
Wickliffe,36.96478,-89.08923,KY,007,4313395
Williamsburg,36.74342,-84.15966,KY,235,4313563
Williamstown,38.63812,-84.5605,KY,081,4313572
Winchester,37.99008,-84.17965,KY,049,4313697
Abbeville,29.97465,-92.13429,LA,113,4314295
Alexandria,31.31129,-92.44514,LA,079,4314550
Amite,30.72657,-90.50898,LA,105,4314744
Arcadia,32.54904,-92.92016,LA,013,4314969
Bastrop,32.77828,-91.91144,LA,067,4315535
Benton,32.69487,-93.74185,LA,015,4316471
Cameron,29.79772,-93.32515,LA,023,4318695
Chalmette,29.94296,-89.96537,LA,087,4319518
Clinton,30.86574,-91.01566,LA,037,4320277
Colfax,31.51906,-92.70682,LA,043,4320425
Columbia,32.10516,-92.07791,LA,021,4320492
Convent,30.02076,-90.82982,LA,093,4320643
Covington,30.47549,-90.10042,LA,103,4321005
Coushatta,32.01488,-93.34212,LA,081,4321014
Crowley,30.21409,-92.37458,LA,001,4321310
DeRidder,30.84631,-93.28905,LA,011,4321781
Donaldsonville,30.10114,-90.99412,LA,005,4322811
Edgard,30.04326,-90.56009,LA,095,4323551
Farmerville,32.77347,-92.4057,LA,111,4324179
Franklin,29.79604,-91.5015,LA,101,4325150
Franklinton,30.84731,-90.15527,LA,117,4325165
Greensburg,30.83074,-90.67176,LA,091,4326511
Gretna,29.91465,-90.05396,LA,051,4326575
Hahnville,29.97659,-90.40897,LA,089,4326799
Harrisonburg,31.77211,-91.82152,LA,025,4327024
Homer,32.79192,-93.05503,LA,027,4327785
Houma,29.59577,-90.71953,LA,109,4328010
Jena,31.68323,-92.13374,LA,059,4329021
Jennings,30.22243,-92.65708,LA,053,4329037
Jonesboro,32.24127,-92.71599,LA,049,4329308
Lafayette,30.22409,-92.01984,LA,055,4330145
Lake Charles,30.21309,-93.2044,LA,019,4330236
Lake Providence,32.80499,-91.17098,LA,035,4330331
Leesville,31.14352,-93.261,LA,115,4330740
Livingston,30.50213,-90.74787,LA,063,4331485
Mansfield,32.03766,-93.70018,LA,031,4332494
Many,31.56878,-93.48406,LA,085,4332518
Marksville,31.12797,-92.06624,LA,009,4332604
Minden,32.61543,-93.28684,LA,119,4333533
Monroe,32.50931,-92.1193,LA,073,4333669
Napoleonville,29.94048,-91.02482,LA,007,4334696
Natchitoches,31.76072,-93.08627,LA,069,4334720
New Iberia,30.00354,-91.81873,LA,045,4334971
New Orleans,29.95465,-90.07507,LA,071,4335045
New Roads,30.70157,-91.43622,LA,077,4335096
Oak Grove,32.86096,-91.38845,LA,123,4335690
Oberlin,30.6202,-92.76265,LA,003,4335887
Opelousas,30.53353,-92.08151,LA,097,4336153
Plaquemine,30.29005,-91.23497,LA,047,4337436
Port Allen,30.45214,-91.21011,LA,121,4337823
Rayville,32.47736,-91.75485,LA,083,4338415
Ruston,32.52321,-92.63793,LA,061,4339348
Saint Francisville,30.7799,-91.3765,LA,125,4339684
Saint Joseph,31.91849,-91.23345,LA,107,4339934
Saint Martinville,30.1252,-91.83345,LA,099,4340196
Shreveport,32.52515,-93.75018,LA,017,4341513
Tallulah,32.40848,-91.18678,LA,065,4343103
Thibodaux,29.79576,-90.82287,LA,057,4343429
Vidalia,31.56544,-91.42595,LA,029,4344599
Ville Platte,30.68797,-92.27152,LA,039,4344651
Winnfield,31.92558,-92.64131,LA,127,4346455
Winnsboro,32.16321,-91.72068,LA,041,4346466
Baltimore,39.29038,-76.61219,MD,510,4347778
Bel Air,39.53594,-76.34829,MD,025,4348240
Cambridge,38.56317,-76.07883,MD,019,4350175
Centreville,39.04178,-76.06633,MD,035,4350878
Chestertown,39.209,-76.06661,MD,029,4351264
Cumberland,39.65287,-78.76252,MD,001,4352681
Denton,38.88456,-75.82716,MD,011,4353075
Easton,38.77428,-76.07633,MD,041,4353962
Elkton,39.60678,-75.83327,MD,015,4354234
Ellicott City,39.26733,-76.79831,MD,027,4354265
Frederick,39.41427,-77.41054,MD,021,4355585
Hagerstown,39.64176,-77.71999,MD,043,4357141
La Plata,38.52929,-76.97525,MD,017,4360103
Leonardtown,38.29124,-76.63579,MD,037,4360551
Oakland,39.40787,-79.40671,MD,023,4364231
Prince Frederick,38.5404,-76.5844,MD,009,4366159
Princess Anne,38.2029,-75.69243,MD,039,4366176
Rockville,39.084,-77.15276,MD,031,4367175
Salisbury,38.36067,-75.59937,MD,045,4368711
Snow Hill,38.17706,-75.3927,MD,047,4369807
Towson,39.4015,-76.60191,MD,005,4371582
Upper Marlboro,38.81595,-76.74969,MD,033,4372183
Westminster,39.57538,-76.99581,MD,013,4373238
Alton,36.69423,-91.3993,MO,149,4374730
Ava,36.952,-92.66045,MO,067,4375383
Benton,37.09783,-89.56258,MO,201,4376569
Bloomfield,36.88589,-89.92926,MO,207,4377531
Bolivar,37.61448,-93.41047,MO,167,4377835
Boonville,38.97364,-92.74324,MO,053,4377957
Bowling Green,39.34199,-91.19514,MO,163,4378070
Buffalo,37.64393,-93.09241,MO,059,4379025
Butler,38.25863,-94.33051,MO,013,4379322
California,38.62753,-92.56658,MO,135,4379545
Camdenton,38.00809,-92.74463,MO,029,4379634
Carrollton,39.35835,-93.49577,MO,033,4380145
Carthage,37.17645,-94.31022,MO,097,4380202
Caruthersville,36.19312,-89.65564,MO,155,4380211
Cassville,36.67701,-93.86881,MO,009,4380284
Centerville,37.43505,-90.95846,MO,179,4380775
Charleston,36.92089,-89.35063,MO,133,4380997
Chillicothe,39.79529,-93.55244,MO,117,4381104
Clayton,38.64255,-90.32373,MO,189,4381478
Clinton,38.36863,-93.77827,MO,083,4381643
Columbia,38.95171,-92.33407,MO,019,4381982
Doniphan,36.62089,-90.82346,MO,181,4384264
Eminence,37.1506,-91.35764,MO,203,4385654
Farmington,37.78088,-90.42179,MO,187,4386289
Fayette,39.14587,-92.68379,MO,089,4386332
Forsyth,36.68506,-93.1199,MO,213,4386981
Fredericktown,37.55978,-90.29401,MO,123,4387240
Fulton,38.84671,-91.94796,MO,027,4387496
Gainesville,36.60312,-92.42822,MO,153,4387545
Galena,36.80534,-93.46658,MO,209,4387557
Gallatin,39.91445,-93.96217,MO,061,4387569
Greenfield,37.41532,-93.84104,MO,057,4388790
Greenville,37.12727,-90.45011,MO,223,4388822
Harrisonville,38.65334,-94.34884,MO,037,4389658
Hartville,37.25088,-92.51044,MO,229,4389731
Hermann,38.70421,-91.43738,MO,073,4390221
Hermitage,37.94142,-93.31631,MO,085,4390229
Hillsboro,38.23228,-90.5629,MO,099,4390705
Houston,37.32616,-91.95599,MO,215,4391354
Huntsville,39.44059,-92.54518,MO,175,4391641
Ironton,37.59727,-90.62734,MO,093,4392057
Jackson,37.38227,-89.66621,MO,031,4392163
Kennett,36.23618,-90.05565,MO,069,4393451
Keytesville,39.43447,-92.93825,MO,041,4393535
Kingston,39.64417,-94.03855,MO,025,4393687
Lamar,37.49505,-94.27661,MO,011,4394487
Lebanon,37.6806,-92.66379,MO,105,4394794
Lexington,39.18473,-93.87994,MO,107,4395035
Liberty,39.24611,-94.41912,MO,047,4395052
Linneus,39.87863,-93.18882,MO,115,4395447
Macon,39.74226,-92.47269,MO,121,4396767
Marble Hill,37.30589,-89.97038,MO,017,4397065
Marshall,39.12308,-93.19687,MO,195,4397211
Marshfield,37.33866,-92.90712,MO,225,4397238
Maysville,39.88917,-94.3619,MO,063,4397543
Mexico,39.16976,-91.88295,MO,007,4398103
Montgomery City,38.97754,-91.50488,MO,139,4398894
Mount Vernon,37.10367,-93.81854,MO,109,4399605
Neosho,36.86896,-94.368,MO,145,4400183
Nevada,37.83921,-94.35467,MO,217,4400203
New London,39.58532,-91.40098,MO,173,4400423
New Madrid,36.58645,-89.52785,MO,143,4400427
Oregon,39.98694,-95.14498,MO,087,4402011
Osceola,38.0467,-93.70438,MO,185,4402099
Ozark,37.02089,-93.20602,MO,043,4402245
Palmyra,39.79421,-91.52321,MO,127,4402381
Paris,39.48087,-92.00128,MO,137,4402452
Perryville,37.72422,-89.86122,MO,157,4402998
Pineville,36.59452,-94.3841,MO,119,4403442
Platte City,39.37028,-94.78246,MO,165,4403599
Plattsburg,39.56555,-94.44801,MO,049,4403615
Poplar Bluff,36.757,-90.39289,MO,023,4404233
Potosi,37.93644,-90.78791,MO,221,4404348
Richmond,39.27862,-93.97689,MO,177,4405588
Rolla,37.95143,-91.77127,MO,161,4406282
Saint Charles,38.78394,-90.48123,MO,183,4406831
Saint Joseph,39.76861,-94.84663,MO,021,4407010
St. Louis,38.62727,-90.19789,MO,510,4407066
Salem,37.6456,-91.53598,MO,065,4407308
Savannah,39.94166,-94.83025,MO,003,4407665
Sedalia,38.70446,-93.22826,MO,159,4408000
Shelbyville,39.80587,-92.04156,MO,205,4408350
Springfield,37.21533,-93.29824,MO,077,4409896
Steelville,37.9681,-91.35487,MO,055,4410113
Stockton,37.69893,-93.79604,MO,039,4410287
Troy,38.97949,-90.9807,MO,113,4412089
Tuscumbia,38.23309,-92.45852,MO,131,4412325
Union,38.45005,-91.00848,MO,071,4412454
Van Buren,36.99561,-91.01457,MO,035,4412847
Versailles,38.43141,-92.84103,MO,141,4413013
Vienna,38.18671,-91.94711,MO,125,4413085
Warrensburg,38.76279,-93.73605,MO,101,4413595
Warrenton,38.81144,-91.14154,MO,219,4413598
Warsaw,38.24308,-93.38187,MO,015,4413601
Waynesville,37.82865,-92.20072,MO,169,4413802
West Plains,36.72812,-91.85237,MO,091,4414200
Aberdeen,33.82511,-88.54366,MS,095,4415813
Ackerman,33.31012,-89.17284,MS,019,4415878
Ashland,34.83287,-89.1759,MS,009,4416602
Bay Saint Louis,30.30881,-89.33005,MS,045,4417205
Belzoni,33.18429,-90.48926,MS,053,4417676
Booneville,34.65815,-88.56672,MS,117,4419094
Brandon,32.2732,-89.98592,MS,121,4419290
Brookhaven,31.57906,-90.44065,MS,085,4419500
Canton,32.61264,-90.03675,MS,089,4420617
Carrollton,33.50818,-89.92036,MS,015,4420729
Carthage,32.73264,-89.53618,MS,079,4420799
Clarksdale,34.20011,-90.57093,MS,027,4421935
Collins,31.64544,-89.55535,MS,031,4422375
Columbus,33.49567,-88.42726,MS,087,4422442
Columbia,31.25184,-89.83758,MS,091,4422457
Corinth,34.93425,-88.52227,MS,003,4422713
De Kalb,32.76763,-88.65088,MS,069,4423639
Decatur,32.43903,-89.10839,MS,101,4423701
Fayette,31.71155,-91.06066,MS,063,4426218
Forest,32.36459,-89.47423,MS,123,4426884
Fulton,34.27399,-88.40921,MS,057,4427345
Greenville,33.40898,-91.05978,MS,151,4428475
Greenwood,33.51623,-90.17953,MS,083,4428495
Grenada,33.769,-89.80842,MS,043,4428539
Hattiesburg,31.32712,-89.29034,MS,035,4429295
Hazlehurst,31.86044,-90.39593,MS,029,4429387
Hernando,34.82399,-89.9937,MS,033,4429589
Holly Springs,34.7676,-89.44869,MS,093,4430104
Indianola,33.45095,-90.65509,MS,133,4430981
Iuka,34.81176,-88.19004,MS,141,4431283
Kosciusko,33.058,-89.58956,MS,007,4432542
Leakesville,31.15574,-88.5578,MS,041,4433116
Lexington,33.11318,-90.05314,MS,051,4433359
Liberty,31.15823,-90.81232,MS,005,4433362
Louisville,33.12374,-89.05506,MS,159,4434283
Lucedale,30.92519,-88.59002,MS,039,4434388
Macon,33.1054,-88.56088,MS,103,4434645
Magnolia,31.14323,-90.45871,MS,113,4434720
Marks,34.25683,-90.27298,MS,119,4434925
Mayersville,32.90207,-91.05122,MS,055,4435217
Meadville,31.47239,-90.89677,MS,037,4435652
Mendenhall,31.96182,-89.87008,MS,127,4435722
Meridian,32.36431,-88.70366,MS,075,4435764
Monticello,31.55378,-90.10731,MS,077,4436445
Natchez,31.56017,-91.40329,MS,001,4437982
New Albany,34.49427,-89.00784,MS,145,4438121
New Augusta,31.20263,-89.03668,MS,111,4438134
Oxford,34.3665,-89.51925,MS,071,4440076
Pascagoula,30.36576,-88.55613,MS,059,4440397
Philadelphia,32.77152,-89.11673,MS,099,4440906
Pittsboro,33.94039,-89.33757,MS,013,4441555
Pontotoc,34.24788,-88.99867,MS,115,4442067
Poplarville,30.84019,-89.53423,MS,109,4442164
Port Gibson,31.96099,-90.98399,MS,021,4442187
Prentiss,31.5985,-89.86702,MS,065,4442363
Purvis,31.14324,-89.40979,MS,073,4442639
Quitman,32.04015,-88.7281,MS,023,4442692
Raleigh,32.03349,-89.52229,MS,129,4442797
Ripley,34.72982,-88.95062,MS,139,4443338
Rolling Fork,32.90652,-90.87816,MS,125,4443769
Senatobia,34.6176,-89.9687,MS,137,4445447
Starkville,33.45049,-88.81961,MS,105,4447161
Tunica,34.68455,-90.38288,MS,143,4448894
Tupelo,34.25807,-88.70464,MS,081,4448903
Tylertown,31.11601,-90.14203,MS,147,4449106
Vicksburg,32.35265,-90.87788,MS,149,4449620
Walthall,33.60734,-89.27729,MS,155,4450203
Waynesboro,31.67488,-88.64615,MS,153,4450441
West Point,33.60762,-88.65033,MS,025,4450753
Wiggins,30.85824,-89.13533,MS,131,4451140
Winona,33.48207,-89.72814,MS,097,4451465
Woodville,31.10462,-91.29956,MS,157,4451678
Yazoo City,32.85513,-90.40565,MS,163,4451810
Albemarle,35.35014,-80.20006,NC,167,4452303
Asheboro,35.70791,-79.81364,NC,151,4453035
Asheville,35.60095,-82.55402,NC,021,4453066
Bakersville,36.01567,-82.15874,NC,121,4453467
Bayboro,35.14294,-76.77021,NC,137,4454022
Beaufort,34.71822,-76.66382,NC,031,4454370
Bolivia,34.06767,-78.14833,NC,019,4456615
Boone,36.21679,-81.67455,NC,189,4456703
Brevard,35.23345,-82.73429,NC,175,4457040
Bryson City,35.43127,-83.44944,NC,173,4457719
Burgaw,34.55211,-77.9261,NC,141,4458175
Burnsville,35.91734,-82.30096,NC,199,4458265
Camden,36.32849,-76.17188,NC,029,4458737
Carthage,35.34599,-79.41697,NC,125,4459426
Charlotte,35.22709,-80.84313,NC,119,4460243
Clinton,34.99795,-78.32333,NC,163,4461101
Columbia,35.91766,-76.25215,NC,177,4461493
Columbus,35.25317,-82.19706,NC,149,4461499
Concord,35.40888,-80.58158,NC,025,4461574
Currituck,36.44988,-76.01548,NC,053,4462759
Danbury,36.4093,-80.20588,NC,169,4462940
Dobson,36.39569,-80.72257,NC,171,4463810
Durham,35.99403,-78.89862,NC,063,4464368
Edenton,36.05794,-76.60772,NC,041,4464897
Elizabeth City,36.2946,-76.25105,NC,139,4465088
Elizabethtown,34.62934,-78.60529,NC,017,4465106
Fayetteville,35.05266,-78.87836,NC,051,4466033
Franklin,35.18232,-83.38154,NC,113,4467128
Gastonia,35.26208,-81.1873,NC,071,4467732
Gatesville,36.40349,-76.75301,NC,073,4467743
Goldsboro,35.38488,-77.99277,NC,191,4468261
Graham,36.06903,-79.40058,NC,001,4468525
Greenville,35.61266,-77.36635,NC,147,4469160
Halifax,36.32849,-77.58942,NC,083,4469617
Hayesville,35.0462,-83.81795,NC,043,4470359
Henderson,36.32959,-78.39916,NC,181,4470566
Hendersonville,35.31873,-82.46095,NC,089,4470592
Hertford,36.19016,-76.46605,NC,143,4470727
Hillsborough,36.07542,-79.09973,NC,135,4471241
Jackson,36.3896,-77.42136,NC,131,4473017
Jacksonville,34.75405,-77.43024,NC,133,4473083
Jefferson,36.4204,-81.47344,NC,009,4473226
Kenansville,34.96239,-77.96221,NC,061,4474147
Kinston,35.26266,-77.58164,NC,107,4474436
Laurinburg,34.77405,-79.46282,NC,165,4475347
Lenoir,35.91402,-81.53898,NC,027,4475640
Lexington,35.82403,-80.25338,NC,057,4475773
Lillington,35.39933,-78.81585,NC,085,4475942
Lincolnton,35.47375,-81.25453,NC,109,4475995
Louisburg,36.09904,-78.30111,NC,069,4477296
Lumberton,34.61834,-79.01045,NC,155,4477525
Manteo,35.90823,-75.67573,NC,055,4477893
Marion,35.68401,-82.00927,NC,111,4478003
Marshall,35.79733,-82.68403,NC,115,4478090
Mocksville,35.89403,-80.56145,NC,059,4479891
Monroe,34.98543,-80.54951,NC,179,4479946
Morganton,35.74541,-81.68482,NC,023,4480219
Murphy,35.08758,-84.03463,NC,039,4481308
Nashville,35.9746,-77.96554,NC,127,4481519
New Bern,35.10849,-77.04411,NC,049,4481682
Newland,36.08735,-81.92734,NC,011,4482066
Newton,35.66986,-81.22147,NC,035,4482101
Oxford,36.3107,-78.59083,NC,077,4483745
Pittsboro,35.72015,-79.17724,NC,037,4485655
Plymouth,35.86683,-76.74856,NC,187,4485973
Raeford,34.981,-79.2242,NC,093,4486983
Robbinsville,35.32287,-83.8074,NC,075,4488298
Rockingham,34.93932,-79.77395,NC,153,4488587
Roxboro,36.39375,-78.98279,NC,145,4489200
Rutherfordton,35.36929,-81.95677,NC,161,4489365
Salisbury,35.67097,-80.47423,NC,159,4489985
Sanford,35.47988,-79.1803,NC,105,4490329
Shelby,35.29235,-81.53565,NC,045,4491180
Smithfield,35.50849,-78.33945,NC,101,4492168
Snow Hill,35.45155,-77.68109,NC,079,4492329
Sparta,36.50541,-81.12092,NC,005,4492829
Statesville,35.78264,-80.8873,NC,097,4493316
Swanquarter,35.40628,-76.32909,NC,095,4494228
Sylva,35.37371,-83.22598,NC,099,4494335
Tarboro,35.89682,-77.5358,NC,065,4494513
Taylorsville,35.9218,-81.17647,NC,003,4494650
Trenton,35.0671,-77.35274,NC,103,4495585
Troy,35.35847,-79.89449,NC,123,4495714
Wadesboro,34.96821,-80.07673,NC,007,4497244
Warrenton,36.39848,-78.15527,NC,185,4497622
Washington,35.54655,-77.05217,NC,013,4497666
Waynesville,35.48871,-82.98875,NC,087,4497868
Wentworth,36.40014,-79.77448,NC,157,4498056
Whiteville,34.33878,-78.70307,NC,047,4498899
Williamston,35.8546,-77.05551,NC,117,4499294
Wilmington,34.22573,-77.94471,NC,129,4499379
Wilson,35.72127,-77.91554,NC,195,4499389
Windsor,35.99849,-76.94606,NC,015,4499528
Winston-Salem,36.09986,-80.24422,NC,067,4499612
Winton,36.39571,-76.9319,NC,091,4499635
Yadkinville,36.13458,-80.65951,NC,197,4500154
Yanceyville,36.40403,-79.33613,NC,033,4500166
Bridgeton,39.42734,-75.23408,NJ,011,4500942
Camden,39.92595,-75.11962,NJ,007,4501018
Cape May Court House,39.08261,-74.82378,NJ,009,4501057
Mays Landing,39.45234,-74.72766,NJ,001,4502962
Mount Holly,39.99289,-74.78766,NJ,005,4503134
Salem,39.57178,-75.46714,NJ,033,4503944
Toms River,39.95373,-74.19792,NJ,029,4504476
Woodbury,39.83817,-75.15268,NJ,015,4504915
Athens,39.32924,-82.10126,OH,009,4505542
Batavia,39.07701,-84.17688,OH,025,4505868
Caldwell,39.74785,-81.51651,OH,121,4507661
Cincinnati,39.12711,-84.51439,OH,061,4508722
Circleville,39.60062,-82.94601,OH,129,4508778
Dayton,39.75895,-84.19161,OH,113,4509884
Eaton,39.74394,-84.63662,OH,135,4510719
Gallipolis,38.8098,-82.20237,OH,053,4512449
Georgetown,38.86451,-83.90409,OH,015,4512584
Hamilton,39.3995,-84.56134,OH,017,4513575
Hillsboro,39.20229,-83.61159,OH,071,4514282
Ironton,38.53675,-82.68294,OH,087,4515247
Jackson,39.05202,-82.63655,OH,079,4515318
Lancaster,39.71368,-82.59933,OH,045,4516233
Lebanon,39.43534,-84.20299,OH,165,4516412
Logan,39.54007,-82.4071,OH,073,4516989
London,39.88645,-83.44825,OH,097,4517009
Marietta,39.41535,-81.45484,OH,167,4517586
McArthur,39.24646,-82.47849,OH,163,4517774
McConnelsville,39.64868,-81.85319,OH,115,4517816
New Lexington,39.71396,-82.20848,OH,127,4519591
Pomeroy,39.02758,-82.03375,OH,105,4521708
Portsmouth,38.73174,-82.99767,OH,145,4521816
Springfield,39.92423,-83.80882,OH,023,4525353
Washington Court House,39.53645,-83.43908,OH,047,4527660
Waverly,39.12673,-82.98546,OH,131,4527760
West Union,38.79452,-83.54519,OH,001,4528071
Wilmington,39.44534,-83.82854,OH,027,4528463
Woodsfield,39.76257,-81.11538,OH,111,4528724
Xenia,39.68478,-83.92965,OH,057,4528810
Zanesville,39.94035,-82.01319,OH,119,4528923
Ada,34.77453,-96.67834,OK,123,4529096
Altus,34.63813,-99.33398,OK,065,4529292
Alva,36.80499,-98.66718,OK,151,4529308
Anadarko,35.07256,-98.24366,OK,015,4529353
Antlers,34.23121,-95.62025,OK,127,4529418
Arapaho,35.57783,-98.96453,OK,039,4529448
Ardmore,34.17426,-97.14363,OK,019,4529469
Arnett,36.13504,-99.77484,OK,045,4529499
Atoka,34.38593,-96.12833,OK,005,4529604
Bartlesville,36.74731,-95.98082,OK,147,4529987
Buffalo,36.83559,-99.6304,OK,059,4531627
Chandler,35.70173,-96.88086,OK,081,4532846
Cherokee,36.75447,-98.35674,OK,003,4532929
Cheyenne,35.61394,-99.67149,OK,129,4533006
Chickasha,35.05257,-97.93643,OK,051,4533029
Claremore,36.3126,-95.61609,OK,131,4533580
Cordell,35.29061,-98.98841,OK,149,4534117
Duncan,34.5023,-97.95781,OK,137,4535389
Durant,33.99399,-96.37082,OK,013,4535414
El Reno,35.53227,-97.95505,OK,017,4535783
Enid,36.39559,-97.87839,OK,047,4535961
Eufaula,35.28722,-95.5825,OK,091,4536031
Fairview,36.26892,-98.4798,OK,093,4536124
Frederick,34.39203,-99.01841,OK,141,4537289
Guthrie,35.87894,-97.42532,OK,083,4538142
Hobart,35.0295,-99.09313,OK,075,4538821
Holdenville,35.08036,-96.39918,OK,063,4538869
Hollis,34.68839,-99.91205,OK,057,4538890
Hugo,34.01066,-95.50968,OK,023,4539145
Idabel,33.89566,-94.82633,OK,089,4539224
Jay,36.42119,-94.7969,OK,041,4539557
Kingfisher,35.86143,-97.93172,OK,073,4540313
Lawton,34.60869,-98.39033,OK,031,4540737
Madill,34.09038,-96.77167,OK,095,4542052
Mangum,34.872,-99.50426,OK,055,4542100
Marietta,33.93704,-97.11668,OK,085,4542164
McAlester,34.93343,-95.76971,OK,121,4542367
Medford,36.80697,-97.73366,OK,053,4542557
Miami,36.87451,-94.87746,OK,115,4542692
Muskogee,35.74788,-95.36969,OK,101,4543338
Newkirk,36.88225,-97.05337,OK,071,4543627
Norman,35.22257,-97.43948,OK,027,4543762
Nowata,36.70065,-95.63803,OK,105,4544025
Okemah,35.43259,-96.30501,OK,107,4544272
Okmulgee,35.62344,-95.96055,OK,111,4544383
Pawhuska,36.66784,-96.33723,OK,113,4547675
Pawnee,36.33783,-96.80392,OK,117,4547684
Pauls Valley,34.74008,-97.22225,OK,049,4547690
Perry,36.28949,-97.2881,OK,103,4547861
Poteau,35.05371,-94.62356,OK,079,4548363
Pryor,36.30843,-95.31691,OK,097,4548516
Purcell,35.01368,-97.36114,OK,087,4548560
Sallisaw,35.46037,-94.78745,OK,135,4550374
Sapulpa,35.9987,-96.11417,OK,037,4550881
Sayre,35.29116,-99.6401,OK,009,4550928
Shawnee,35.32729,-96.9253,OK,125,4551177
Stigler,35.25371,-95.12302,OK,061,4552206
Stillwater,36.11561,-97.05837,OK,119,4552215
Stilwell,35.81453,-94.62856,OK,001,4552280
Sulphur,34.50787,-96.96835,OK,099,4552519
Tahlequah,35.91537,-94.96996,OK,021,4552707
Taloga,36.03865,-98.96371,OK,043,4552740
Tishomingo,34.23621,-96.67861,OK,069,4553126
Tulsa,36.15398,-95.99277,OK,143,4553433
Vinita,36.63869,-95.15413,OK,035,4554496
Wagoner,35.95954,-95.36941,OK,145,4554548
Walters,34.35981,-98.30783,OK,033,4554634
Watonga,35.84477,-98.41313,OK,011,4554800
Waurika,34.16704,-97.99754,OK,067,4554829
Wewoka,35.15869,-96.49335,OK,133,4555211
Wilburton,34.91871,-95.30914,OK,077,4555423
Woodward,36.43365,-99.39039,OK,153,4556050
Chambersburg,39.93759,-77.6611,PA,055,4557109
Gettysburg,39.83093,-77.2311,PA,001,4558183
McConnellsburg,39.93259,-77.99889,PA,057,4559516
Media,39.91678,-75.38769,PA,045,4559575
Philadelphia,39.95233,-75.16379,PA,101,4560349
Uniontown,39.90008,-79.71643,PA,051,4561859
Waynesburg,39.89646,-80.17923,PA,059,4562078
West Chester,39.96097,-75.60804,PA,029,4562144
York,39.9626,-76.72774,PA,133,4562407
Abbeville,34.17817,-82.37901,SC,001,4568985
Aiken,33.56042,-81.71955,SC,003,4569067
Allendale,33.00793,-81.30844,SC,005,4569207
Anderson,34.50344,-82.65013,SC,007,4569298
Bamberg,33.2971,-81.03482,SC,009,4569929
Barnwell,33.24487,-81.35872,SC,011,4570015
Beaufort,32.43158,-80.66983,SC,013,4570284
Bennettsville,34.61738,-79.68478,SC,069,4570634
Bishopville,34.21821,-80.24841,SC,061,4571470
Camden,34.24654,-80.60702,SC,055,4573209
Charleston,32.77657,-79.93092,SC,019,4574324
Chesterfield,34.73599,-80.08812,SC,025,4574550
Chester,34.70486,-81.21426,SC,023,4574565
Conway,33.836,-79.04781,SC,051,4575461
Darlington,34.29988,-79.87617,SC,031,4576319
Dillon,34.41655,-79.37116,SC,033,4576653
Edgefield,33.78958,-81.92956,SC,037,4577532
Florence,34.19543,-79.76256,SC,041,4578737
Gaffney,35.07179,-81.64982,SC,021,4579418
Georgetown,33.37683,-79.2945,SC,043,4579662
Greenville,34.85262,-82.39401,SC,045,4580543
Greenwood,34.1954,-82.16179,SC,047,4580569
Hampton,32.87794,-81.12761,SC,049,4580983
Kingstree,33.66766,-79.83063,SC,089,4584125
Lancaster,34.72043,-80.7709,SC,057,4584556
Laurens,34.49901,-82.01426,SC,059,4584738
Lexington,33.98154,-81.23621,SC,063,4585000
Manning,33.69516,-80.21091,SC,027,4586196
Marion,34.17822,-79.40061,SC,067,4586266
McCormick,33.91346,-82.29346,SC,065,4586642
Moncks Corner,33.19632,-80.01429,SC,015,4587511
Newberry,34.27458,-81.61872,SC,071,4589207
Orangeburg,33.49182,-80.85565,SC,075,4590184
Pickens,34.88345,-82.70736,SC,077,4590946
Ridgeland,32.48074,-80.98039,SC,053,4592912
Saint George,33.186,-80.57565,SC,035,4593797
Saint Matthews,33.66488,-80.77787,SC,017,4594258
Saluda,34.00152,-81.77205,SC,081,4594694
Spartanburg,34.94957,-81.93205,SC,083,4597200
Sumter,33.92044,-80.34147,SC,085,4597948
Union,34.71541,-81.62371,SC,087,4599214
Walhalla,34.76482,-83.06404,SC,073,4599981
Walterboro,32.90517,-80.66677,SC,029,4600065
Winnsboro,34.3807,-81.08648,SC,039,4601335
York,34.9943,-81.24202,SC,091,4601703
Alamo,35.78479,-89.11729,TN,033,4602167
Altamont,35.42952,-85.72303,TN,061,4602483
Ashland City,36.27422,-87.06417,TN,021,4603225
Athens,35.44285,-84.59299,TN,107,4603284
Benton,35.17424,-84.65355,TN,139,4605577
Blountville,36.53316,-82.32681,TN,163,4607201
Bolivar,35.25619,-88.98784,TN,069,4607598
Brownsville,35.59397,-89.26229,TN,075,4609116
Byrdstown,36.57451,-85.12884,TN,137,4610363
Camden,36.05895,-88.09782,TN,005,4610643
Carthage,36.25228,-85.95165,TN,159,4611656
Celina,36.55006,-85.50525,TN,027,4612315
Centerville,35.77896,-87.46696,TN,081,4612465
Charlotte,36.17728,-87.33973,TN,043,4612828
Chattanooga,35.04563,-85.30968,TN,065,4612862
Clarksville,36.52977,-87.35945,TN,125,4613868
Cleveland,35.15952,-84.87661,TN,011,4614088
Clinton,36.10341,-84.13186,TN,001,4614214
Columbia,35.61507,-87.03528,TN,119,4614867
Cookeville,36.16284,-85.50164,TN,141,4615145
Covington,35.56425,-89.64647,TN,167,4615804
Crossville,35.94896,-85.0269,TN,035,4616470
Dandridge,36.01537,-83.41489,TN,089,4617112
Dayton,35.49396,-85.01245,TN,143,4617536
Decatur,35.51479,-84.79022,TN,121,4617650
Decaturville,35.58424,-88.11948,TN,039,4617664
Dover,36.48783,-87.83836,TN,161,4618921
Dresden,36.29145,-88.70811,TN,183,4619013
Dunlap,35.37146,-85.39052,TN,153,4619629
Dyersburg,36.03452,-89.38563,TN,045,4619800
Elizabethton,36.34872,-82.21069,TN,019,4620634
Erin,36.31839,-87.69474,TN,083,4621108
Erwin,36.14511,-82.41681,TN,171,4621130
Fayetteville,35.15203,-86.57055,TN,103,4621915
Franklin,35.92506,-86.86889,TN,187,4623560
Gainesboro,36.35561,-85.65887,TN,087,4624116
Gallatin,36.38838,-86.44666,TN,165,4624180
Greeneville,36.16316,-82.83099,TN,059,4626334
Hartsville,36.39088,-86.16721,TN,169,4628109
Henderson,35.43924,-88.64144,TN,023,4628695
Hohenwald,35.54785,-87.55196,TN,101,4629986
Huntingdon,36.00062,-88.42811,TN,017,4631422
Huntsville,36.4098,-84.49049,TN,151,4631443
Jacksboro,36.33008,-84.18382,TN,013,4632591
Jackson,35.61452,-88.81395,TN,113,4632595
Jamestown,36.42757,-84.93189,TN,049,4632852
Jasper,35.07424,-85.62608,TN,115,4632892
Jonesborough,36.29427,-82.47348,TN,179,4633848
Kingston,35.88091,-84.50854,TN,145,4634671
Knoxville,35.96064,-83.92074,TN,093,4634946
Lafayette,36.52116,-86.02637,TN,111,4635093
Lawrenceburg,35.2423,-87.33474,TN,099,4635849
Lebanon,36.20811,-86.2911,TN,189,4636045
Lewisburg,35.44924,-86.78889,TN,117,4636442
Lexington,35.6509,-88.39338,TN,077,4636463
Linden,35.61729,-87.83947,TN,135,4636915
Livingston,36.3834,-85.32302,TN,133,4637626
Loudon,35.73285,-84.33381,TN,105,4638278
Lynchburg,35.28314,-86.37416,TN,127,4638782
Madisonville,35.5198,-84.36353,TN,123,4639072
Manchester,35.48174,-86.0886,TN,031,4639224
Maryville,35.75647,-83.97046,TN,009,4639848
Maynardville,36.25064,-83.79741,TN,173,4640160
McMinnville,35.6834,-85.76998,TN,177,4640882
Memphis,35.14953,-90.04898,TN,157,4641239
Morristown,36.21398,-83.29489,TN,063,4642938
Mountain City,36.47456,-81.80484,TN,091,4643953
Murfreesboro,35.84562,-86.39027,TN,149,4644312
Newport,35.96704,-83.18766,TN,029,4645532
Paris,36.302,-88.32671,TN,079,4647963
Pikeville,35.60562,-85.18885,TN,007,4649295
Pulaski,35.1998,-87.03084,TN,055,4651648
Ripley,35.74536,-89.5298,TN,097,4653228
Rogersville,36.40732,-83.00544,TN,073,4654293
Rutledge,36.28092,-83.5149,TN,057,4654984
Savannah,35.2248,-88.2492,TN,071,4656006
Selmer,35.17008,-88.59227,TN,109,4656442
Sevierville,35.86815,-83.56184,TN,155,4656585
Shelbyville,35.48341,-86.46027,TN,003,4657077
Smithville,35.96062,-85.81415,TN,041,4658541
Sneedville,36.52981,-83.2174,TN,067,4658683
Somerville,35.2437,-89.35007,TN,047,4658802
Sparta,35.9259,-85.46414,TN,185,4659177
Spencer,35.74729,-85.46664,TN,175,4659233
Springfield,36.50921,-86.885,TN,147,4659557
Tiptonville,36.3784,-89.47202,TN,095,4662809
Trenton,35.98062,-88.94145,TN,053,4663205
Union City,36.42423,-89.05701,TN,131,4664170
Wartburg,36.1048,-84.59716,TN,129,4665933
Waverly,36.08395,-87.79475,TN,085,4666202
Waynesboro,35.31952,-87.76225,TN,181,4666247
Winchester,35.18592,-86.11221,TN,051,4668336
Woodbury,35.82757,-86.07166,TN,015,4668717
Abilene,32.44874,-99.73314,TX,441,4669635
Albany,32.72345,-99.2973,TX,417,4670094
Alice,27.75225,-98.06972,TX,249,4670234
Anahuac,29.773,-94.6827,TX,071,4670707
Anderson,30.48715,-95.9869,TX,185,4670732
Angleton,29.16941,-95.43188,TX,039,4670866
Anson,32.7565,-99.89621,TX,253,4670901
Archer City,33.59566,-98.62561,TX,009,4671174
Athens,32.20487,-95.85552,TX,213,4671545
Baird,32.39402,-99.39424,TX,059,4671988
Ballinger,31.73821,-99.94731,TX,399,4672145
Bandera,29.72661,-99.07365,TX,019,4672171
Bastrop,30.11049,-97.31527,TX,021,4672576
Beaumont,30.08605,-94.10185,TX,245,4672989
Beeville,28.40095,-97.74974,TX,025,4673258
Bellville,29.95023,-96.25719,TX,015,4673398
Belton,31.05601,-97.46445,TX,027,4673425
Benjamin,33.58398,-99.79231,TX,275,4673510
Boerne,29.79466,-98.73197,TX,259,4675373
Bonham,33.57733,-96.17831,TX,147,4675577
Brady,31.13517,-99.33506,TX,307,4676032
Breckenridge,32.75568,-98.90229,TX,429,4676181
Brenham,30.16688,-96.39774,TX,477,4676206
Brownsville,25.90175,-97.49748,TX,061,4676740
Brownwood,31.70932,-98.99116,TX,049,4676798
Bryan,30.67436,-96.36996,TX,041,4677008
Burnet,30.75824,-98.22836,TX,053,4677592
Caldwell,30.53132,-96.69303,TX,051,4678111
Cameron,30.85325,-96.97693,TX,331,4678357
Canton,32.55652,-95.8633,TX,467,4678858
Carrizo Springs,28.52193,-99.86061,TX,127,4679148
Carthage,32.15738,-94.33742,TX,365,4679272
Center,31.79545,-94.17909,TX,419,4679988
Centerville,31.25796,-95.97829,TX,289,4680082
Clarksville,33.61066,-95.05272,TX,387,4681758
Cleburne,32.34764,-97.38668,TX,251,4681976
Coldspring,30.59242,-95.12938,TX,407,4682352
Coleman,31.82737,-99.42645,TX,083,4682380
Columbus,29.70662,-96.53969,TX,089,4682665
Comanche,31.89737,-98.60366,TX,093,4682698
Conroe,30.31188,-95.45605,TX,339,4682991
Cooper,33.37344,-95.68829,TX,119,4683141
Corpus Christi,27.80058,-97.39638,TX,355,4683416
Corsicana,32.09543,-96.46887,TX,349,4683462
Cotulla,28.43693,-99.23503,TX,283,4683696
Crockett,31.31824,-95.45661,TX,225,4684218
Crowell,33.98397,-99.72482,TX,155,4684431
Crystal City,28.67748,-99.82811,TX,507,4684480
Cuero,29.09387,-97.28916,TX,123,4684547
Daingerfield,33.03179,-94.72187,TX,343,4684858
Dallas,32.78306,-96.80667,TX,113,4684888
Decatur,33.23428,-97.58614,TX,497,4685617
Denton,33.21484,-97.13307,TX,121,4685907
Eastland,32.40152,-98.81756,TX,133,4688071
Edinburg,26.30174,-98.16334,TX,215,4688275
Emory,32.87457,-95.76552,TX,379,4689236
Fairfield,31.72461,-96.16525,TX,161,4689837
Falfurrias,27.22699,-98.14417,TX,047,4690070
Floresville,29.13358,-98.15612,TX,493,4691553
Fort Worth,32.72541,-97.32085,TX,439,4691930
Franklin,31.02602,-96.48524,TX,395,4692193
Fredericksburg,30.2752,-98.87198,TX,171,4692279
Gainesville,33.62594,-97.13335,TX,097,4692746
Galveston,29.30135,-94.7977,TX,167,4692883
Gatesville,31.43516,-97.74391,TX,099,4693150
George West,28.3325,-98.11751,TX,297,4693325
Georgetown,30.63269,-97.67723,TX,491,4693342
Giddings,30.18272,-96.93637,TX,287,4693472
Gilmer,32.72875,-94.94244,TX,459,4693569
Glen Rose,32.23459,-97.75531,TX,425,4693696
Goldthwaite,31.44989,-98.57088,TX,333,4693906
Goliad,28.66833,-97.38833,TX,175,4693921
Gonzales,29.50163,-97.45249,TX,177,4693940
Graham,33.10706,-98.5895,TX,503,4694420
Granbury,32.44208,-97.7942,TX,221,4694459
Greenville,33.13845,-96.11081,TX,231,4695066
Groesbeck,31.52434,-96.53387,TX,293,4695270
Groveton,31.05491,-95.12577,TX,455,4695325
Hallettsville,29.44385,-96.94109,TX,285,4695866
Hamilton,31.70377,-98.12392,TX,193,4695938
Haskell,33.1576,-99.7337,TX,207,4696593
Hebbronville,27.30688,-98.68032,TX,247,4696922
Hemphill,31.34074,-93.84685,TX,403,4697054
Hempstead,30.09744,-96.07829,TX,473,4697060
Henrietta,33.81732,-98.19532,TX,077,4697128
Hillsboro,32.01099,-97.13001,TX,217,4697867
Hondo,29.34746,-99.14142,TX,325,4698562
Houston,29.76328,-95.36327,TX,201,4699066
Huntsville,30.72353,-95.55078,TX,471,4699540
Jacksboro,33.21845,-98.15866,TX,237,4700455
Jasper,30.9202,-93.99658,TX,241,4700731
Jefferson,32.75736,-94.34519,TX,315,4700817
Johnson City,30.27687,-98.41197,TX,031,4701346
Jourdanton,28.91803,-98.54641,TX,013,4701686
Junction,30.48936,-99.77201,TX,267,4701791
Karnes City,28.88498,-97.90084,TX,255,4702664
Kaufman,32.58902,-96.30887,TX,257,4702728
Kerrville,30.04743,-99.14032,TX,265,4703078
Kingsville,27.51587,-97.85611,TX,273,4703384
Kountze,30.3716,-94.31241,TX,199,4703726
La Grange,29.9055,-96.87665,TX,149,4703958
Lampasas,31.06378,-98.1817,TX,281,4705176
Laredo,27.50641,-99.50754,TX,479,4705349
Leakey,29.72884,-99.76145,TX,385,4705702
Liberty,30.05799,-94.79548,TX,291,4706088
Linden,33.01235,-94.36547,TX,067,4706404
Livingston,30.71103,-94.93299,TX,373,4707173
Llano,30.75935,-98.67504,TX,299,4707191
Lockhart,29.88494,-97.67,TX,055,4707295
Longview,32.5007,-94.74049,TX,183,4707814
Lufkin,31.33824,-94.7291,TX,005,4708308
Madisonville,30.94991,-95.91162,TX,313,4708703
Marlin,31.30629,-96.89804,TX,145,4709215
Marshall,32.54487,-94.36742,TX,203,4709272
Mason,30.74879,-99.23061,TX,319,4709501
McKinney,33.19762,-96.61527,TX,085,4710178
Menard,30.91767,-99.78646,TX,327,4710697
Meridian,31.92321,-97.65669,TX,035,4710782
Montague,33.66483,-97.72059,TX,337,4711972
Mount Pleasant,33.15679,-94.96827,TX,449,4712933
Mount Vernon,33.18873,-95.22133,TX,159,4713032
Nacogdoches,31.60351,-94.65549,TX,347,4713735
New Boston,33.45984,-94.41548,TX,037,4714126
New Braunfels,29.703,-98.12445,TX,091,4714131
Newton,30.84853,-93.7574,TX,351,4714713
Orange,30.09299,-93.73655,TX,361,4716805
Paint Rock,31.50849,-99.92008,TX,095,4717199
Palestine,31.76212,-95.63079,TX,001,4717232
Palo Pinto,32.76735,-98.29866,TX,363,4717376
Paris,33.66094,-95.55551,TX,277,4717560
Pearsall,28.89219,-99.09503,TX,163,4718107
Pittsburg,32.9954,-94.96577,TX,063,4719416
Port Lavaca,28.615,-96.62609,TX,057,4720067
Quanah,34.29785,-99.74037,TX,197,4721023
Quitman,32.79596,-95.45106,TX,499,4721115
Raymondville,26.48146,-97.78305,TX,489,4721703
Refugio,28.30528,-97.27527,TX,391,4722145
Richmond,29.58218,-95.76078,TX,157,4722684
Rio Grande City,26.37979,-98.8203,TX,427,4722837
Rockwall,32.93123,-96.45971,TX,397,4723406
Rockport,28.02077,-97.05601,TX,007,4723422
Rusk,31.79601,-95.15022,TX,073,4724359
San Antonio,29.42412,-98.49363,TX,029,4726206
San Augustine,31.5299,-94.10603,TX,405,4726256
San Diego,27.76391,-98.2389,TX,131,4726311
San Marcos,29.88327,-97.94139,TX,209,4726491
San Saba,31.19572,-98.7181,TX,411,4726582
Sarita,27.22171,-97.78916,TX,261,4727159
Seguin,29.56884,-97.96473,TX,187,4727756
Seymour,33.59426,-99.26035,TX,023,4727948
Sherman,33.63566,-96.60888,TX,181,4728328
Sinton,28.03668,-97.50916,TX,409,4728826
Stephenville,32.2207,-98.20226,TX,143,4734350
Sulphur Springs,33.13845,-95.60107,TX,223,4734909
Throckmorton,33.17872,-99.17758,TX,447,4736741
Tilden,28.46194,-98.54918,TX,311,4736889
Tyler,32.35126,-95.30106,TX,423,4738214
Uvalde,29.20968,-99.78617,TX,463,4738721
Vernon,34.15536,-99.26628,TX,487,4739078
Victoria,28.80527,-97.0036,TX,469,4739157
Waco,31.54933,-97.14667,TX,309,4739526
Waxahachie,32.38653,-96.84833,TX,139,4740328
Weatherford,32.7593,-97.79725,TX,367,4740364
Wharton,29.31164,-96.10274,TX,481,4741325
Wichita Falls,33.91371,-98.49339,TX,485,4741752
Woodville,30.7752,-94.41548,TX,457,4743079
Zapata,26.90726,-99.27143,TX,505,4743575
Abingdon,36.70983,-81.97735,VA,191,4743815
Accomac,37.71957,-75.66548,VA,001,4743873
Alexandria,38.80484,-77.04692,VA,510,4744091
Amelia Court House,37.34293,-77.98056,VA,007,4744309
Amherst,37.58514,-79.05141,VA,009,4744326
Appomattox,37.35709,-78.82529,VA,011,4744609
Arlington,38.88101,-77.10428,VA,013,4744709
Bedford,37.33431,-79.52309,VA,019,4746265
Berryville,39.15177,-77.98222,VA,043,4746795
Bland,37.10206,-81.1162,VA,021,4747930
Bowling Green,38.04958,-77.34665,VA,033,4748550
Boydton,36.66764,-78.3875,VA,117,4748634
Bristol,36.59649,-82.18847,VA,520,4748993
Buckingham,37.55015,-78.55556,VA,029,4749652
Buena Vista,37.7343,-79.35392,VA,530,4749715
Charles City,37.34348,-77.07303,VA,036,4752001
Charlotte Court House,37.05654,-78.63833,VA,037,4752027
Charlottesville,38.02931,-78.47668,VA,540,4752031
Chatham,36.82569,-79.39808,VA,143,4752060
Chesapeake,36.81904,-76.27494,VA,550,4752186
Chesterfield,37.37709,-77.50582,VA,041,4752250
Christiansburg,37.12985,-80.40894,VA,121,4752665
Clintwood,37.15011,-82.45598,VA,051,4753218
Colonial Heights,37.26804,-77.40726,VA,570,4753671
Courtland,36.71626,-77.06802,VA,175,4754296
Covington,37.79346,-79.99395,VA,580,4754358
Culpeper,38.47318,-77.99666,VA,047,4754966
Cumberland,37.49598,-78.24527,VA,049,4754989
Danville,36.58597,-79.39502,VA,590,4755280
Dinwiddie,37.07793,-77.58665,VA,053,4755972
Eastville,37.35264,-75.94576,VA,131,4757073
Emporia,36.68598,-77.54248,VA,595,4757673
Fairfax,38.84622,-77.30637,VA,600,4758023
Falls Church,38.88233,-77.17109,VA,610,4758390
Farmville,37.3021,-78.39194,VA,147,4758495
Fincastle,37.4993,-79.87726,VA,023,4758750
Floyd,36.91124,-80.32005,VA,063,4759446
Franklin,36.67765,-76.92246,VA,620,4759986
Fredericksburg,38.30318,-77.46054,VA,630,4760059
Front Royal,38.91817,-78.19444,VA,187,4760232
Galax,36.66124,-80.92397,VA,640,4760376
Gate City,36.63788,-82.58099,VA,169,4760593
Goochland,37.68431,-77.88527,VA,075,4761277
Grundy,37.27789,-82.09902,VA,027,4762512
Halifax,36.76597,-78.92834,VA,083,4762755
Hampton,37.02987,-76.34522,VA,650,4762894
Hanover,37.76653,-77.37026,VA,085,4762979
Harrisonburg,38.44957,-78.86892,VA,660,4763231
Heathsville,37.91763,-76.47217,VA,133,4763558
Hillsville,36.76263,-80.73479,VA,035,4764251
Hopewell,37.30432,-77.2872,VA,670,4764826
Isle of Wight,36.90765,-76.70773,VA,093,4766204
Jonesville,36.68898,-83.111,VA,105,4767229
King George,38.26818,-77.18442,VA,099,4767771
King William,37.68736,-77.01358,VA,101,4767789
King and Queen Court House,37.66986,-76.87746,VA,097,4767794
Lancaster,37.76986,-76.46634,VA,103,4768513
Lawrenceville,36.75765,-77.84694,VA,025,4768900
Lebanon,36.90094,-82.08013,VA,167,4768972
Leesburg,39.11566,-77.5636,VA,107,4769125
Lexington,37.78402,-79.44282,VA,678,4769339
Louisa,38.02514,-78.00416,VA,109,4770766
Lovingston,37.75986,-78.87086,VA,125,4770827
Lunenburg,36.96098,-78.26555,VA,111,4770995
Luray,38.6654,-78.45945,VA,139,4771014
Lynchburg,37.41375,-79.14225,VA,680,4771075
Madison,38.38041,-78.2575,VA,113,4771235
Manassas,38.75095,-77.47527,VA,683,4771401
Manassas Park,38.784,-77.46971,VA,685,4771414
Marion,36.83484,-81.51484,VA,173,4771643
Martinsville,36.69153,-79.87254,VA,690,4771808
Mathews,37.43708,-76.31994,VA,115,4771980
Monterey,38.41234,-79.5806,VA,091,4773690
Montross,38.09513,-76.82746,VA,193,4773752
New Castle,37.50013,-80.11088,VA,045,4775705
Newport News,37.08339,-76.46965,VA,700,4776024
Norfolk,36.84681,-76.28522,VA,710,4776222
Norton,36.93343,-82.62905,VA,720,4776585
Orange,38.24541,-78.11083,VA,137,4777454
Palmyra,37.86097,-78.26334,VA,065,4777824
Pearisburg,37.32673,-80.73702,VA,071,4778312
Petersburg,37.22793,-77.40193,VA,730,4778626
Poquoson,37.12237,-76.34578,VA,735,4779923
Portsmouth,36.83543,-76.29827,VA,740,4779999
Powhatan,37.54209,-77.91889,VA,145,4780220
Prince George,37.22043,-77.28803,VA,149,4780370
Pulaski,37.0479,-80.77979,VA,155,4780577
Radford,37.13179,-80.57645,VA,750,4780837
Roanoke,37.27097,-79.94143,VA,770,4782167
Rocky Mount,36.99764,-79.89198,VA,067,4782691
Rustburg,37.27681,-79.10085,VA,031,4783303
Salem,37.29347,-80.05476,VA,775,4784112
Saluda,37.60597,-76.59495,VA,119,4784259
Spotsylvania,38.20096,-77.58915,VA,177,4786946
Stafford,38.42207,-77.40832,VA,179,4787247
Stanardsville,38.29735,-78.44001,VA,079,4787296
Staunton,38.14991,-79.0732,VA,790,4787440
Stuart,36.64097,-80.26561,VA,141,4788051
Suffolk,36.72836,-76.58496,VA,800,4788158
Surry,37.13793,-76.83524,VA,181,4788431
Sussex,36.91515,-77.27914,VA,183,4788444
Tappahannock,37.92541,-76.85913,VA,057,4788822
Tazewell,37.11484,-81.51955,VA,185,4788966
Virginia Beach,36.85293,-75.97799,VA,810,4791259
Warm Springs,38.04624,-79.79061,VA,017,4792225
Warrenton,38.71345,-77.79527,VA,061,4792255
Warsaw,37.95874,-76.75801,VA,159,4792273
Washington,38.71345,-78.15944,VA,157,4792307
Waynesboro,38.06847,-78.88947,VA,820,4792522
Williamsburg,37.2707,-76.70746,VA,830,4793846
Winchester,39.18566,-78.16333,VA,840,4794120
Woodstock,38.88178,-78.50584,VA,171,4794641
Wytheville,36.94845,-81.08481,VA,197,4794837
Beckley,37.77817,-81.18816,WV,081,4798308
Berkeley Springs,39.6248,-78.22472,WV,065,4798697
Buckhannon,38.99399,-80.23203,WV,097,4800587
Charles Town,39.28899,-77.85972,WV,037,4801850
Clarksburg,39.28065,-80.34453,WV,033,4802316
Clay,38.46038,-81.08511,WV,015,4802333
Elizabeth,39.06341,-81.39512,WV,105,4804951
Elkins,38.92594,-79.84673,WV,083,4805033
Fairmont,39.48508,-80.14258,WV,049,4805404
Fayetteville,38.05289,-81.10399,WV,019,4805686
Franklin,38.64289,-79.33115,WV,071,4806504
Glenville,38.93426,-80.8376,WV,021,4807116
Grafton,39.34092,-80.01897,WV,091,4807310
Grantsville,38.92342,-81.09595,WV,013,4807389
Hamlin,38.2787,-82.10292,WV,043,4807976
Harrisville,39.20952,-81.05178,WV,085,4808281
Hinton,37.67401,-80.88925,WV,089,4808945
Huntington,38.41925,-82.44515,WV,011,4809537
Keyser,39.44093,-78.97392,WV,057,4810884
Kingwood,39.47176,-79.68339,WV,077,4811007
Lewisburg,37.80179,-80.44563,WV,025,4812015
Logan,37.84871,-81.99346,WV,045,4812867
Madison,38.06705,-81.81929,WV,005,4813565
Marlinton,38.22345,-80.09451,WV,075,4813774
Martinsburg,39.45621,-77.96389,WV,003,4813878
Middlebourne,39.4923,-80.90372,WV,095,4814674
Moorefield,39.06233,-78.96947,WV,031,4815286
Morgantown,39.62953,-79.9559,WV,061,4815352
Moundsville,39.92035,-80.74314,WV,051,4815462
New Martinsville,39.64452,-80.8576,WV,103,4816520
Parkersburg,39.26674,-81.56151,WV,107,4817641
Parsons,39.09649,-79.6809,WV,093,4817695
Petersburg,38.99261,-79.12392,WV,023,4818030
Philippi,39.15232,-80.04036,WV,001,4818074
Pineville,37.58317,-81.53705,WV,109,4818347
Point Pleasant,38.84453,-82.13709,WV,053,4818750
Princeton,37.36623,-81.10259,WV,055,4819079
Ripley,38.8187,-81.71069,WV,035,4820037
Romney,39.34204,-78.75668,WV,027,4820597
Saint Marys,39.39174,-81.20511,WV,073,4821087
Spencer,38.80203,-81.35095,WV,087,4822933
Summersville,38.28122,-80.8526,WV,067,4824027
Sutton,38.66454,-80.70982,WV,007,4824118
Union,37.59151,-80.54368,WV,063,4825447
Wayne,38.22147,-82.44237,WV,099,4826592
Webster Springs,38.47927,-80.41342,WV,101,4826648
Welch,37.43289,-81.58455,WV,047,4826660
West Union,39.29647,-80.77705,WV,017,4826808
Weston,39.03843,-80.46731,WV,041,4826882
Williamson,37.67427,-82.27736,WV,059,4827333
Winfield,38.53314,-81.89347,WV,079,4827506
Elba,31.41461,-86.06772,AL,031,4828081
Franklin,39.48061,-86.05499,IN,081,4828382
Newton,38.99088,-88.16254,IL,079,4828384
Linn,38.48587,-91.85045,MO,151,4828677
Chillicothe,39.33312,-82.9824,OH,141,4828890
Coalgate,34.53815,-96.21861,OK,029,4828923
New Kent,37.51765,-76.97886,VA,127,4829274
Independence,36.62245,-81.15309,VA,077,4829280
Bay City,28.98276,-95.9694,TX,321,4829307
Wise,36.97593,-82.57571,VA,195,4829341
Abbeville,31.57184,-85.25049,AL,067,4829449
Andalusia,31.30808,-86.48243,AL,039,4830099
Anniston,33.65983,-85.83163,AL,015,4830198
Athens,34.80243,-86.97219,AL,083,4830668
Ashland,33.27373,-85.83607,AL,027,4830687
Alfred,43.47647,-70.71839,ME,031,4832342
Rockland,44.10369,-69.10893,ME,013,4832458
Edina,40.16754,-92.17268,MO,103,4832684
Hayti,44.65719,-97.20507,SD,057,4833760
Adel,41.61443,-94.01745,IA,049,4846398
Albia,41.02667,-92.80575,IA,135,4846529
Algona,43.06997,-94.23302,IA,109,4846602
Allison,42.75275,-92.79519,IA,023,4846691
Anamosa,42.10834,-91.28516,IA,105,4846880
Atlantic,41.4036,-95.01388,IA,029,4847385
Audubon,41.71804,-94.93249,IA,009,4847421
Bedford,40.66693,-94.72136,IA,173,4848022
Bloomfield,40.75169,-92.41491,IA,051,4848854
Boone,42.0597,-93.88023,IA,015,4849051
Burlington,40.80754,-91.11292,IA,057,4849826
Carroll,42.06582,-94.86693,IA,027,4850478
Cedar Rapids,42.00833,-91.64407,IA,113,4850751
Centerville,40.73418,-92.87409,IA,007,4850961
Chariton,41.01389,-93.3066,IA,117,4851140
Charles City,43.06636,-92.67241,IA,067,4851163
Cherokee,42.74943,-95.55167,IA,035,4851247
Clarinda,40.73981,-95.038,IA,145,4851762
Clarion,42.73164,-93.73299,IA,197,4851785
Clinton,41.84447,-90.18874,IA,045,4852022
Corning,40.98999,-94.74081,IA,003,4852711
Corydon,40.75695,-93.31882,IA,185,4852755
Council Bluffs,41.26194,-95.86083,IA,155,4852832
Cresco,43.38136,-92.11405,IA,089,4853059
Creston,41.0586,-94.36135,IA,175,4853078
Dakota City,42.72219,-94.19718,IA,091,4853296
Davenport,41.52364,-90.57764,IA,163,4853423
Decorah,43.30331,-91.78571,IA,191,4853608
Denison,42.01777,-95.35528,IA,047,4853757
Dubuque,42.50056,-90.66457,IA,061,4854529
Eldora,42.36082,-93.09965,IA,083,4855218
Elkader,42.85387,-91.40542,IA,043,4855341
Emmetsburg,43.11274,-94.68304,IA,147,4855595
Estherville,43.40163,-94.83276,IA,063,4855709
Fairfield,41.00863,-91.96267,IA,101,4855967
Forest City,43.26246,-93.63716,IA,189,4857406
Fort Dodge,42.49747,-94.16802,IA,187,4857486
Garner,43.10246,-93.60188,IA,081,4858117
Glenwood,41.04694,-95.74251,IA,129,4858479
Greenfield,41.30527,-94.46135,IA,001,4859234
Grundy Center,42.36165,-92.76853,IA,075,4859430
Guthrie Center,41.67721,-94.5033,IA,077,4859491
Hampton,42.74192,-93.20242,IA,069,4859658
Harlan,41.65304,-95.32555,IA,165,4859802
Ida Grove,42.34499,-95.47167,IA,093,4861464
Independence,42.4686,-91.88934,IA,019,4861620
Indianola,41.35805,-93.55744,IA,181,4861719
Iowa City,41.66113,-91.53017,IA,103,4862034
Jefferson,42.01526,-94.37747,IA,073,4862482
Keosauqua,40.73031,-91.96239,IA,177,4863380
Knoxville,41.32083,-93.10937,IA,125,4863705
Le Mars,42.79416,-96.16558,IA,149,4864337
Leon,40.73972,-93.74772,IA,053,4864492
Logan,41.64305,-95.7889,IA,085,4865287
Manchester,42.48415,-91.45543,IA,055,4865996
Maquoketa,42.06891,-90.66569,IA,097,4866164
Marengo,41.79806,-92.07074,IA,095,4866236
Marshalltown,42.04943,-92.90798,IA,127,4866371
Mason City,43.15357,-93.20104,IA,033,4866445
Montezuma,41.58583,-92.52741,IA,157,4867775
Mount Ayr,40.71471,-94.23523,IA,159,4868092
Mount Pleasant,40.96364,-91.55794,IA,087,4868205
Muscatine,41.42447,-91.04321,IA,139,4868404
Nevada,42.02277,-93.45243,IA,169,4868620
New Hampton,43.05914,-92.31768,IA,037,4868686
Newton,41.69971,-93.04798,IA,099,4868907
Northwood,43.44412,-93.22104,IA,195,4869369
Onawa,42.02665,-96.09724,IA,133,4870003
Orange City,43.00721,-96.05835,IA,167,4870083
Osage,43.28414,-92.81103,IA,131,4870184
Osceola,41.03389,-93.7655,IA,039,4870211
Oskaloosa,41.29639,-92.64436,IA,123,4870239
Ottumwa,41.02001,-92.4113,IA,179,4870380
Pocahontas,42.73553,-94.66915,IA,151,4871727
Primghar,43.08692,-95.62723,IA,141,4872189
Red Oak,41.00972,-95.22555,IA,137,4872593
Rock Rapids,43.42719,-96.17586,IA,119,4873354
Rockwell City,42.39526,-94.63387,IA,025,4873426
Sac City,42.4222,-94.98971,IA,161,4873884
Sidney,40.74833,-95.6475,IA,071,4876353
Sibley,43.39914,-95.75196,IA,143,4876378
Sigourney,41.33334,-92.20463,IA,107,4876384
Sioux City,42.49999,-96.40031,IA,193,4876523
Spencer,43.14136,-95.14444,IA,041,4877138
Spirit Lake,43.42218,-95.10222,IA,059,4877184
Storm Lake,42.64109,-95.20972,IA,021,4877655
Tipton,41.76974,-91.12793,IA,031,4878643
Toledo,41.99555,-92.57686,IA,171,4878703
Vinton,42.16861,-92.02351,IA,011,4880268
Wapello,41.18142,-91.18543,IA,115,4880620
Washington,41.29918,-91.69294,IA,183,4880731
Waterloo,42.49276,-92.34296,IA,013,4880889
Waukon,43.26942,-91.4757,IA,005,4880997
Waverly,42.72581,-92.47546,IA,017,4881024
Webster City,42.46942,-93.81605,IA,079,4881096
West Union,42.96276,-91.80822,IA,065,4881551
Winterset,41.33082,-94.01384,IA,121,4882259
Aledo,41.19976,-90.74931,IL,131,4883053
Belvidere,42.26391,-88.84427,IL,007,4884453
Bloomington,40.4842,-88.99369,IL,113,4885164
Cambridge,41.30365,-90.1929,IL,073,4886374
Carthage,40.41643,-91.13625,IL,067,4886716
Chicago,41.85003,-87.65005,IL,031,4887398
Clinton,40.15365,-88.96453,IL,039,4888217
Danville,40.12448,-87.63002,IL,183,4889426
Dixon,41.83892,-89.47955,IL,103,4889959
Eureka,40.72143,-89.27286,IL,203,4891310
Freeport,42.29669,-89.62123,IL,177,4893171
Galena,42.41667,-90.42902,IL,085,4893384
Galesburg,40.94782,-90.37124,IL,095,4893392
Geneva,41.88753,-88.30535,IL,089,4893591
Havana,40.30004,-90.06095,IL,125,4895336
Hennepin,41.2542,-89.34231,IL,155,4895580
Joliet,41.52519,-88.0834,IL,197,4898015
Kankakee,41.12003,-87.86115,IL,091,4898182
Lacon,41.02476,-89.4112,IL,123,4898920
Lewistown,40.3931,-90.15484,IL,057,4899665
Lincoln,40.14838,-89.36482,IL,107,4899822
Macomb,40.45921,-90.6718,IL,109,4900817
Monmouth,40.91143,-90.64736,IL,187,4902512
Monticello,40.02781,-88.5734,IL,147,4902567
Morris,41.35725,-88.42118,IL,063,4902706
Morrison,41.80975,-89.96512,IL,195,4902724
Mount Carroll,42.09502,-89.97818,IL,015,4902883
Oquawka,40.93198,-90.94709,IL,071,4904872
Oregon,42.01475,-89.33233,IL,141,4904898
Ottawa,41.34559,-88.84258,IL,099,4905006
Paxton,40.46031,-88.09532,IL,053,4905509
Pekin,40.56754,-89.64066,IL,179,4905599
Peoria,40.69365,-89.58899,IL,143,4905687
Petersburg,40.01172,-89.84817,IL,129,4905791
Pontiac,40.88087,-88.62978,IL,105,4906438
Princeton,41.36809,-89.46481,IL,011,4906818
Rock Island,41.50948,-90.57875,IL,161,4907907
Rockford,42.27113,-89.094,IL,201,4907959
Rushville,40.12116,-90.56318,IL,169,4908321
Sycamore,41.98892,-88.68675,IL,037,4913110
Toulon,41.09365,-89.86483,IL,175,4913799
Urbana,40.11059,-88.20727,IL,019,4914570
Watseka,40.77615,-87.73642,IL,075,4915703
Waukegan,42.36363,-87.84479,IL,097,4915734
Wheaton,41.86614,-88.10701,IL,043,4916288
Woodstock,42.31474,-88.4487,IL,111,4917123
Yorkville,41.64114,-88.44729,IL,093,4917298
Albion,41.3956,-85.42442,IN,113,4917523
Anderson,40.10532,-85.68025,IN,095,4917592
Angola,41.63477,-84.99941,IN,151,4917614
Auburn,41.36699,-85.05886,IN,033,4917712
Bluffton,40.73866,-85.17164,IN,179,4918234
Columbia City,41.15727,-85.48831,IN,183,4919203
Covington,40.1417,-87.39474,IN,045,4919349
Crawfordsville,40.04115,-86.87445,IN,107,4919381
Crown Point,41.41698,-87.36531,IN,089,4919451
Decatur,40.8306,-84.92913,IN,001,4919564
Delphi,40.58754,-86.67501,IN,015,4919624
Fort Wayne,41.1306,-85.12886,IN,003,4920423
Fowler,40.6167,-87.32085,IN,007,4920452
Frankfort,40.27948,-86.51084,IN,023,4920473
Goshen,41.58227,-85.83444,IN,039,4920808
Hartford City,40.45115,-85.36997,IN,009,4921229
Huntington,40.8831,-85.49748,IN,069,4921725
Kentland,40.77032,-87.4453,IN,111,4922267
Kokomo,40.48643,-86.1336,IN,067,4922388
Knox,41.29588,-86.62501,IN,149,4922418
Lafayette,40.4167,-86.87529,IN,157,4922462
Lagrange,41.64172,-85.41665,IN,087,4922472
Lebanon,40.04837,-86.46917,IN,011,4922673
Logansport,40.75448,-86.35667,IN,017,4922968
Marion,40.55837,-85.65914,IN,053,4923210
Monticello,40.74532,-86.76473,IN,181,4923745
Muncie,40.19338,-85.38636,IN,035,4924006
Noblesville,40.04559,-86.0086,IN,057,4924198
Peru,40.75365,-86.06888,IN,103,4924733
Plymouth,41.34366,-86.30973,IN,099,4924970
Portland,40.43449,-84.97775,IN,075,4925037
Rensselaer,40.9367,-87.15086,IN,073,4925311
Rochester,41.06476,-86.21583,IN,049,4925519
South Bend,41.68338,-86.25001,IN,141,4926563
Tipton,40.28226,-86.0411,IN,159,4927242
Valparaiso,41.47309,-87.06114,IN,127,4927537
Wabash,40.79782,-85.82054,IN,169,4927746
Warsaw,41.2381,-85.85305,IN,085,4927854
Williamsport,40.28837,-87.2939,IN,171,4928274
Winamac,41.05143,-86.60306,IN,131,4928313
Winchester,40.17199,-84.98135,IN,135,4928318
Barnstable,41.70011,-70.29947,MA,001,4929771
Dedham,42.24177,-71.16616,MA,021,4934664
Edgartown,41.38901,-70.51336,MA,007,4935645
Nantucket,41.28346,-70.09946,MA,019,4944903
Taunton,41.9001,-71.08977,MA,005,4952629
Worcester,42.26259,-71.80229,MA,027,4956184
Auburn,44.09785,-70.23117,ME,001,4956976
Bangor,44.80118,-68.77781,ME,019,4957280
Bath,43.91064,-69.8206,ME,023,4957570
Belfast,44.42591,-69.00642,ME,027,4957956
Ellsworth,44.54341,-68.41946,ME,009,4963692
Farmington,44.67062,-70.15117,ME,007,4964024
Houlton,46.12616,-67.8403,ME,003,4967563
Machias,44.71508,-67.46138,ME,029,4970888
Paris,44.25979,-70.50062,ME,017,4974617
Portland,43.65737,-70.2589,ME,005,4975802
Skowhegan,44.76506,-69.71922,ME,025,4978701
Wiscasset,44.00286,-69.6656,ME,015,4983359
Adrian,41.89755,-84.03717,MI,091,4983811
Allegan,42.5292,-85.8553,MI,005,4983989
Alpena,45.06168,-83.43275,MI,007,4984075
Ann Arbor,42.27756,-83.74088,MI,161,4984247
Atlanta,45.00473,-84.14389,MI,119,4984500
Bad Axe,43.80196,-83.00078,MI,063,4984692
Baldwin,43.90112,-85.85173,MI,085,4984802
Bay City,43.59447,-83.88886,MI,017,4985180
Bellaire,44.98028,-85.21117,MI,009,4985583
Bessemer,46.48134,-90.05295,MI,053,4985785
Beulah,44.63194,-86.09092,MI,019,4985887
Big Rapids,43.69808,-85.48366,MI,107,4986020
Cadillac,44.25195,-85.40116,MI,165,4987617
Caro,43.49073,-83.39885,MI,157,4988059
Cassopolis,41.91171,-86.01001,MI,027,4988232
Centreville,41.92338,-85.52832,MI,149,4988455
Charlevoix,45.31806,-85.2584,MI,029,4988575
Charlotte,42.56365,-84.83582,MI,045,4988584
Cheboygan,45.64696,-84.47448,MI,031,4988617
Coldwater,41.94033,-85.00052,MI,023,4989266
Corunna,42.98197,-84.11775,MI,155,4989686
Crystal Falls,46.09801,-88.33402,MI,071,4990121
Detroit,42.33143,-83.04575,MI,163,4990729
Eagle River,47.41381,-88.29566,MI,083,4991470
Escanaba,45.74525,-87.06458,MI,041,4992232
Flint,43.01253,-83.68746,MI,049,4992982
Gaylord,45.02751,-84.67475,MI,137,4993756
Gladwin,43.98085,-84.4864,MI,051,4993985
Grand Haven,43.06307,-86.22839,MI,139,4994325
Grand Rapids,42.96336,-85.66809,MI,081,4994358
Grayling,44.6614,-84.71475,MI,039,4994578
Harrison,44.01919,-84.79947,MI,035,4995403
Harrisville,44.6564,-83.29469,MI,001,4995424
Hart,43.69834,-86.36397,MI,127,4995436
Hastings,42.64587,-85.29084,MI,015,4995520
Hillsdale,41.92005,-84.63051,MI,059,4996107
Houghton,47.12187,-88.56901,MI,061,4996572
Howell,42.60726,-83.9294,MI,093,4996655
Ionia,42.98725,-85.07112,MI,067,4997191
Iron Mountain,45.82023,-88.06596,MI,043,4997232
Ithaca,43.2917,-84.6075,MI,057,4997346
Jackson,42.24587,-84.40135,MI,075,4997384
Kalamazoo,42.29171,-85.58723,MI,077,4997787
Kalkaska,44.73417,-85.17589,MI,079,4997805
L'Anse,46.7566,-88.45291,MI,013,4998431
Lake City,44.33529,-85.21505,MI,113,4998533
Lapeer,43.05142,-83.31883,MI,087,4998842
Leland,45.02305,-85.75981,MI,089,4999064
Ludington,43.95528,-86.45258,MI,105,5000306
Manistee,44.24445,-86.32425,MI,101,5000611
Manistique,45.95775,-86.24625,MI,153,5000625
Marquette,46.54354,-87.39542,MI,103,5000947
Marshall,42.27226,-84.96331,MI,025,5000996
Menominee,45.10776,-87.61427,MI,109,5001669
Midland,43.61558,-84.24721,MI,111,5001929
Mio,44.65224,-84.12973,MI,135,5002197
Monroe,41.91643,-83.39771,MI,115,5002344
Mount Clemens,42.59726,-82.87798,MI,099,5002656
Mount Pleasant,43.59781,-84.76751,MI,073,5002714
Munising,46.4112,-86.64926,MI,003,5003065
Muskegon,43.23418,-86.24839,MI,121,5003132
Newberry,46.355,-85.50956,MI,095,5003435
Ontonagon,46.87105,-89.31403,MI,131,5004520
Paw Paw,42.21782,-85.89112,MI,159,5005126
Petoskey,45.37334,-84.95533,MI,047,5005484
Pontiac,42.63892,-83.29105,MI,125,5006166
Port Huron,42.97086,-82.42491,MI,147,5006233
Reed City,43.87502,-85.51005,MI,133,5006946
Rogers City,45.4214,-83.81833,MI,141,5007477
Roscommon,44.49835,-84.59197,MI,143,5007585
Saginaw,43.41947,-83.95081,MI,145,5007989
Saint Ignace,45.86614,-84.72751,MI,097,5008224
Saint Johns,43.00114,-84.55915,MI,037,5008278
Saint Joseph,42.10976,-86.48002,MI,021,5008327
Sandusky,43.4203,-82.82966,MI,151,5008920
Sault Ste. Marie,46.4953,-84.34532,MI,033,5009004
Standish,43.98308,-83.95888,MI,011,5011020
Stanton,43.29253,-85.08141,MI,117,5011042
Tawas City,44.26946,-83.5147,MI,069,5011900
Traverse City,44.76306,-85.62063,MI,055,5012495
West Branch,44.27641,-84.23861,MI,129,5014413
White Cloud,43.5503,-85.772,MI,123,5014811
Ada,47.29969,-96.51535,MN,107,5015844
Aitkin,46.53301,-93.71025,MN,001,5015978
Albert Lea,43.64801,-93.36827,MN,047,5016024
Alexandria,45.88524,-95.37754,MN,041,5016108
Anoka,45.19774,-93.38718,MN,003,5016450
Austin,43.66663,-92.97464,MN,099,5016884
Bagley,47.52162,-95.39835,MN,029,5016990
Baudette,48.71247,-94.59993,MN,077,5017385
Bemidji,47.47356,-94.88028,MN,007,5017822
Benson,45.315,-95.6025,MN,151,5017882
Blue Earth,43.63746,-94.10218,MN,043,5018751
Brainerd,46.35802,-94.20083,MN,035,5019116
Breckenridge,46.26357,-96.58813,MN,167,5019168
Buffalo,45.17191,-93.87469,MN,171,5019588
Caledonia,43.63469,-91.49681,MN,055,5019936
Cambridge,45.57274,-93.22439,MN,059,5020068
Carlton,46.66383,-92.42491,MN,017,5020428
Center City,45.39385,-92.8166,MN,025,5020733
Chaska,44.78941,-93.60218,MN,019,5020938
Crookston,47.77414,-96.60812,MN,119,5023465
Detroit Lakes,46.81718,-95.84533,MN,005,5024237
Duluth,46.78327,-92.10658,MN,137,5024719
Elbow Lake,45.99413,-95.97672,MN,051,5025381
Elk River,45.30385,-93.56718,MN,141,5025471
Fairmont,43.65218,-94.46108,MN,091,5026114
Faribault,44.29496,-93.26883,MN,131,5026291
Fergus Falls,46.28302,-96.07756,MN,111,5026416
Foley,45.66469,-93.9097,MN,009,5027025
Gaylord,44.55302,-94.22053,MN,143,5027765
Glencoe,44.76913,-94.15164,MN,085,5028042
Glenwood,45.65024,-95.38976,MN,121,5028087
Grand Marais,47.75045,-90.33427,MN,031,5028500
Grand Rapids,47.23717,-93.53021,MN,061,5028537
Granite Falls,44.80996,-95.54558,MN,173,5028572
Hallock,48.77443,-96.94645,MN,069,5029154
Hastings,44.7433,-92.85243,MN,037,5029500
International Falls,48.60105,-93.41098,MN,071,5031404
Ivanhoe,44.4633,-96.24726,MN,081,5031626
Jackson,43.62079,-94.9886,MN,063,5031678
Le Center,44.38941,-93.73023,MN,079,5034299
Litchfield,45.12718,-94.52805,MN,093,5034813
Little Falls,45.97635,-94.3625,MN,097,5034970
Long Prairie,45.97469,-94.86558,MN,153,5035635
Luverne,43.65414,-96.21281,MN,133,5036062
Madison,45.00968,-96.19588,MN,073,5036210
Mahnomen,47.31524,-95.96865,MN,087,5036278
Mankato,44.15906,-94.00915,MN,013,5036420
Mantorville,44.06913,-92.75575,MN,039,5036461
Marshall,44.4469,-95.78835,MN,083,5036727
Milaca,45.7558,-93.65441,MN,095,5037456
Minneapolis,44.97997,-93.26384,MN,053,5037649
Montevideo,44.94803,-95.71701,MN,023,5038018
Moorhead,46.87386,-96.76951,MN,027,5038108
Mora,45.8769,-93.29384,MN,065,5038195
Morris,45.58607,-95.91394,MN,149,5038252
New Ulm,44.31246,-94.46053,MN,015,5039173
Olivia,44.77635,-94.98972,MN,129,5040195
Ortonville,45.30469,-96.44478,MN,011,5040365
Owatonna,44.08385,-93.22604,MN,147,5040647
Park Rapids,46.92218,-95.05863,MN,057,5040822
Pine City,45.82607,-92.96854,MN,115,5041525
Pipestone,44.00053,-96.31753,MN,117,5041752
Preston,43.67024,-92.08322,MN,045,5042330
Red Lake Falls,47.88219,-96.27421,MN,125,5042731
Red Wing,44.56247,-92.5338,MN,049,5042773
Redwood Falls,44.5394,-95.11694,MN,127,5042832
Rochester,44.02163,-92.4699,MN,109,5043473
Roseau,48.84609,-95.76277,MN,135,5043752
Saint Cloud,45.5608,-94.16249,MN,145,5044407
Saint James,43.98246,-94.62692,MN,165,5044563
Saint Peter,44.32358,-93.95801,MN,103,5045517
Shakopee,44.79802,-93.5269,MN,139,5046997
Slayton,43.98774,-95.75585,MN,101,5047587
Stillwater,45.05636,-92.80604,MN,163,5048814
Thief River Falls,48.11914,-96.18115,MN,113,5049970
Two Harbors,47.02271,-91.67073,MN,075,5050817
Wabasha,44.38386,-92.03294,MN,157,5051594
Wadena,46.44246,-95.13614,MN,159,5051659
Walker,47.10135,-94.58722,MN,021,5051735
Warren,48.19664,-96.77284,MN,089,5051875
Waseca,44.07774,-93.50744,MN,161,5051902
Wheaton,45.80441,-96.49923,MN,155,5052600
Willmar,45.12191,-95.04334,MN,067,5052916
Windom,43.86635,-95.11694,MN,033,5053084
Winona,44.04996,-91.63932,MN,169,5053156
Worthington,43.61996,-95.5964,MN,105,5053460
Albany,40.24861,-94.33107,MO,075,5053875
Bethany,40.26833,-94.02829,MO,081,5054079
Grant City,40.48749,-94.41107,MO,227,5055199
Kahoka,40.42032,-91.71961,MO,045,5055742
Kirksville,40.19475,-92.58325,MO,001,5055787
Lancaster,40.52086,-92.52797,MO,197,5055851
Maryville,40.3461,-94.87247,MO,147,5056172
Memphis,40.45781,-92.17129,MO,199,5056241
Milan,40.20224,-93.12521,MO,211,5056280
Monticello,40.11838,-91.71211,MO,111,5056350
Princeton,40.40084,-93.5805,MO,129,5056943
Rock Port,40.41111,-95.51693,MO,005,5057058
Trenton,40.0789,-93.61661,MO,079,5057562
Unionville,40.47696,-93.00326,MO,171,5057655
Ashley,46.03414,-99.3715,ND,051,5058135
Cando,48.48667,-99.20986,ND,095,5058534
Carrington,47.44972,-99.12622,ND,031,5058552
Cavalier,48.79388,-97.62231,ND,067,5058568
Cooperstown,47.44444,-98.12398,ND,039,5058701
Devils Lake,48.11278,-98.86512,ND,071,5058868
Ellendale,46.00275,-98.52705,ND,021,5059052
Fargo,46.87719,-96.7898,ND,017,5059163
Fessenden,47.64917,-99.62929,ND,103,5059181
Finley,47.51416,-97.83593,ND,091,5059192
Forman,46.10774,-97.63649,ND,081,5059237
Grafton,48.41221,-97.41063,ND,099,5059419
Grand Forks,47.92526,-97.03285,ND,035,5059429
Hillsboro,47.40387,-97.06203,ND,097,5059660
Jamestown,46.91054,-98.70844,ND,093,5059836
Lakota,48.04278,-98.33621,ND,063,5060055
Langdon,48.76,-98.36817,ND,019,5060071
Lisbon,46.44163,-97.68121,ND,073,5060162
Napoleon,46.50831,-99.77122,ND,047,5060572
Minnewaukan,48.07139,-99.25236,ND,005,5060591
New Rockford,47.68,-99.1379,ND,027,5060614
Rolla,48.85778,-99.61792,ND,079,5061159
Rugby,48.36889,-99.99625,ND,069,5061221
Steele,46.85471,-99.91594,ND,043,5062036
Valley City,46.92331,-98.00315,ND,003,5062292
Wahpeton,46.26524,-96.60591,ND,077,5062355
Ainsworth,42.55,-99.86262,NE,017,5062769
Albion,41.69084,-98.00367,NE,011,5062806
Alma,40.09751,-99.36204,NE,083,5062898
Auburn,40.39278,-95.83889,NE,127,5063318
Aurora,40.86723,-98.00422,NE,081,5063342
Bartlett,41.88529,-98.5523,NE,183,5063518
Bassett,42.58583,-99.53789,NE,149,5063540
Beatrice,40.26806,-96.74697,NE,067,5063646
Beaver City,40.13751,-99.82956,NE,065,5063678
Blair,41.54444,-96.12502,NE,177,5064236
Brewster,41.93889,-99.86485,NE,009,5064587
Broken Bow,41.40195,-99.63928,NE,041,5064638
Burwell,41.78167,-99.13315,NE,071,5064937
Butte,42.91139,-98.84926,NE,015,5064972
Center,42.60945,-97.87673,NE,107,5065392
Central City,41.11585,-98.00172,NE,121,5065429
Clay Center,40.52168,-98.05533,NE,035,5065817
Columbus,41.42973,-97.36838,NE,141,5066001
Dakota City,42.41555,-96.41836,NE,043,5066637
David City,41.25279,-97.13004,NE,023,5066700
Elwood,40.59028,-99.86095,NE,073,5067646
Fairbury,40.13722,-97.18059,NE,095,5067896
Falls City,40.06084,-95.60193,NE,147,5068052
Franklin,40.09612,-98.95258,NE,061,5068640
Fremont,41.43333,-96.49808,NE,053,5068725
Fullerton,41.36335,-97.96923,NE,125,5068818
Geneva,40.52695,-97.59588,NE,059,5068953
Grand Island,40.92501,-98.34201,NE,079,5069297
Greeley,41.54862,-98.53118,NE,077,5069395
Hartington,42.6225,-97.2645,NE,027,5069753
Hastings,40.58612,-98.38839,NE,001,5069802
Hebron,40.16639,-97.58588,NE,169,5069928
Holdrege,40.44029,-99.36982,NE,137,5070216
Kearney,40.69946,-99.08148,NE,019,5071348
Lexington,40.78084,-99.7415,NE,047,5071934
Loup City,41.27557,-98.96675,NE,163,5072374
Madison,41.82834,-97.45505,NE,119,5072532
Minden,40.49863,-98.94786,NE,099,5073225
Nebraska City,40.67667,-95.85917,NE,131,5073661
Neligh,42.12862,-98.02979,NE,003,5073735
Nelson,40.20168,-98.06782,NE,129,5073754
O'Neill,42.45778,-98.64759,NE,089,5074259
Omaha,41.25626,-95.94043,NE,055,5074472
Ord,41.60334,-98.9262,NE,175,5074567
Osceola,41.17974,-97.54755,NE,143,5074610
Papillion,41.15444,-96.04224,NE,153,5074792
Pawnee City,40.10833,-96.15445,NE,133,5074889
Pender,42.11416,-96.70726,NE,173,5074969
Pierce,42.19917,-97.52672,NE,139,5075148
Plattsmouth,41.01139,-95.88223,NE,025,5075348
Ponca,42.5625,-96.70559,NE,051,5075615
Red Cloud,40.0889,-98.5195,NE,181,5076060
Saint Paul,41.21473,-98.45812,NE,093,5077237
Schuyler,41.44723,-97.05948,NE,037,5078641
Seward,40.90695,-97.09892,NE,159,5078792
Stanton,41.95028,-97.22393,NE,167,5079541
Springview,42.82444,-99.74901,NE,103,5079617
Taylor,41.77028,-99.37872,NE,115,5080066
Tecumseh,40.36667,-96.19612,NE,097,5080098
Tekamah,41.77832,-96.22113,NE,021,5080113
Wahoo,41.21139,-96.6203,NE,155,5081245
Wayne,42.23056,-97.01782,NE,179,5081454
West Point,41.84167,-96.70864,NE,039,5081666
Wilber,40.48139,-96.96058,NE,151,5081848
York,40.86807,-97.592,NE,185,5082331
Brentwood,42.9787,-71.07284,NH,015,5083780
Dover,43.19786,-70.87367,NH,017,5085520
Keene,42.93369,-72.27814,NH,005,5088262
Laconia,43.52785,-71.47035,NH,001,5088438
Lancaster,44.48895,-71.56925,NH,007,5088529
Newport,43.36535,-72.17342,NH,019,5090256
North Haverhill,44.09034,-72.02648,NH,009,5090375
Ossipee,43.68536,-71.11673,NH,003,5090683
Belvidere,40.82982,-75.07767,NJ,041,5095571
Elizabeth,40.66399,-74.2107,NJ,039,5097598
Flemington,40.51233,-74.85933,NJ,019,5098124
Freehold,40.26011,-74.27376,NJ,025,5098278
Hackensack,40.88593,-74.04347,NJ,003,5098706
Jersey City,40.72816,-74.07764,NJ,017,5099836
Morristown,40.79677,-74.48154,NJ,027,5101427
New Brunswick,40.48622,-74.45182,NJ,023,5101717
Newark,40.73566,-74.17237,NJ,013,5101798
Newton,41.05815,-74.75267,NJ,037,5101848
Paterson,40.91677,-74.17181,NJ,031,5102466
Somerville,40.57427,-74.60988,NJ,035,5104774
Albion,43.24645,-78.19363,NY,073,5106862
Auburn,42.93173,-76.56605,NY,011,5107505
Ballston Spa,43.00091,-73.84901,NY,091,5107812
Batavia,42.99812,-78.18752,NY,037,5108093
Bath,42.33702,-77.31776,NY,101,5108110
Belmont,42.22312,-78.03445,NY,003,5108728
Binghamton,42.09869,-75.91797,NY,007,5109177
The Bronx,40.84985,-73.86641,NY,005,5110266
Brooklyn,40.6501,-73.94958,NY,047,5110302
Buffalo,42.88645,-78.87837,NY,029,5110629
Canandaigua,42.87423,-77.28804,NY,069,5111405
Canton,44.59562,-75.16909,NY,089,5111484
Carmel,41.43009,-73.68013,NY,079,5111576
Catskill,42.21731,-73.86457,NY,039,5111833
Cooperstown,42.70048,-74.92426,NY,077,5113664
Cortland,42.60118,-76.18048,NY,023,5113790
Delhi,42.27814,-74.91599,NY,025,5114824
Elizabethtown,44.21616,-73.59097,NY,031,5116380
Elmira,42.0898,-76.80773,NY,015,5116497
Fonda,42.95452,-74.37652,NY,057,5117529
Fort Edward,43.26702,-73.58456,NY,115,5117657
Geneseo,42.7959,-77.81695,NY,051,5118394
Goshen,41.40204,-74.32432,NY,071,5118920
Herkimer,43.02563,-74.98599,NY,043,5120545
Hudson,42.25286,-73.79096,NY,021,5121509
Ithaca,42.44063,-76.49661,NY,109,5122432
Johnstown,43.00674,-74.36764,NY,035,5122833
Kingston,41.92704,-73.99736,NY,111,5123477
Lake Pleasant,43.4709,-74.41265,NY,041,5123834
Little Valley,42.25256,-78.80559,NY,009,5124889
Lockport,43.17061,-78.69031,NY,063,5125011
Lowville,43.78674,-75.49185,NY,049,5125461
Lyons,43.06423,-76.99025,NY,117,5125554
Malone,44.84866,-74.2949,NY,033,5125717
Manhattan,40.78343,-73.96625,NY,061,5125771
Mayville,42.25395,-79.50449,NY,013,5126287
Mineola,40.74927,-73.64068,NY,059,5127134
Monticello,41.65565,-74.68933,NY,105,5127359
New City,41.1476,-73.98931,NY,087,5128481
Norwich,42.53118,-75.52351,NY,017,5129359
Oswego,43.45535,-76.5105,NY,075,5130081
Owego,42.10341,-76.26215,NY,107,5130273
Penn Yan,42.6609,-77.05386,NY,123,5130915
Plattsburgh,44.69949,-73.45291,NY,019,5131692
Poughkeepsie,41.70037,-73.92097,NY,027,5132143
Queens,40.68149,-73.83652,NY,081,5133273
Queensbury,43.37729,-73.61317,NY,113,5133279
Riverhead,40.91704,-72.66204,NY,103,5133926
Rochester,43.15478,-77.61556,NY,055,5134086
Schenectady,42.81424,-73.93957,NY,093,5136454
Schoharie,42.66591,-74.30958,NY,095,5136494
Staten Island,40.56233,-74.13986,NY,085,5139568
Syracuse,43.04812,-76.14742,NY,067,5140405
Troy,42.72841,-73.69179,NY,083,5141502
Utica,43.1009,-75.23266,NY,065,5142056
Wampsville,43.07535,-75.70685,NY,053,5143186
Warsaw,42.74006,-78.13279,NY,121,5143282
Waterloo,42.90479,-76.86274,NY,099,5143380
Watertown,43.97478,-75.91076,NY,045,5143396
Watkins Glen,42.38063,-76.87329,NY,097,5143419
White Plains,41.03399,-73.76291,NY,119,5144336
Akron,41.08144,-81.51901,OH,153,5145476
Ashland,40.86867,-82.31822,OH,005,5146055
Bellefontaine,40.36116,-83.75966,OH,091,5146965
Bowling Green,41.37477,-83.65132,OH,173,5147968
Bryan,41.47477,-84.55245,OH,171,5148533
Bucyrus,40.80839,-82.97546,OH,033,5148635
Cadiz,40.27285,-80.99676,OH,067,5148855
Cambridge,40.03118,-81.58846,OH,059,5149007
Canton,40.79895,-81.37845,OH,151,5149222
Carrollton,40.57284,-81.08565,OH,019,5149327
Celina,40.54894,-84.57023,OH,107,5149493
Chardon,41.61422,-81.14899,OH,055,5149818
Cleveland,41.4995,-81.69541,OH,035,5150529
Coshocton,40.27202,-81.85958,OH,031,5151186
Defiance,41.28449,-84.35578,OH,039,5151861
Delaware,40.29867,-83.06797,OH,041,5151891
Elyria,41.36838,-82.10765,OH,093,5153207
Findlay,41.04422,-83.64993,OH,063,5153924
Fremont,41.35033,-83.12186,OH,143,5155207
Greenville,40.10283,-84.63301,OH,037,5156493
Jefferson,41.73867,-80.76981,OH,007,5159071
Kenton,40.647,-83.60965,OH,065,5159554
Lima,40.74255,-84.10523,OH,003,5160783
Lisbon,40.772,-80.76813,OH,029,5160951
Mansfield,40.75839,-82.51545,OH,139,5161723
Marion,40.58867,-83.12852,OH,101,5161902
Marysville,40.23645,-83.36714,OH,159,5162077
Medina,41.13839,-81.86375,OH,103,5162512
Millersburg,40.55451,-81.91792,OH,075,5163076
Mount Gilead,40.54923,-82.8274,OH,117,5163631
Mount Vernon,40.3934,-82.48572,OH,083,5163799
Napoleon,41.39227,-84.12522,OH,069,5164057
New Philadelphia,40.48979,-81.44567,OH,157,5164390
Newark,40.05812,-82.40126,OH,089,5164466
Norwalk,41.24255,-82.61573,OH,077,5165101
Ottawa,41.01922,-84.04717,OH,137,5165801
Painesville,41.72449,-81.24566,OH,085,5166009
Paulding,41.13811,-84.58051,OH,125,5166253
Port Clinton,41.512,-82.93769,OH,123,5167259
Ravenna,41.15756,-81.24205,OH,133,5167737
Saint Clairsville,40.08063,-80.90009,OH,013,5169130
Sandusky,41.44894,-82.70796,OH,043,5170691
Sidney,40.28422,-84.1555,OH,149,5172078
Steubenville,40.36979,-80.63396,OH,081,5173048
Tiffin,41.1145,-83.17797,OH,147,5173930
Toledo,41.66394,-83.55521,OH,095,5174035
Troy,40.0395,-84.20328,OH,109,5174358
Upper Sandusky,40.82728,-83.28131,OH,175,5174870
Urbana,40.10839,-83.75243,OH,021,5174897
Van Wert,40.86949,-84.58412,OH,161,5175079
Wapakoneta,40.56783,-84.19356,OH,011,5175670
Warren,41.23756,-80.81842,OH,155,5175865
Wauseon,41.54922,-84.14161,OH,051,5175877
Wooster,40.80517,-81.93646,OH,169,5177358
Youngstown,41.09978,-80.64952,OH,099,5177568
Allentown,40.60843,-75.49018,PA,077,5178127
Beaver,40.69534,-80.30478,PA,007,5179446
Bedford,40.01869,-78.50391,PA,009,5179630
Bellefonte,40.91339,-77.77833,PA,027,5179799
Bloomsburg,41.0037,-76.45495,PA,037,5180934
Brookville,41.16117,-79.08309,PA,065,5181828
Butler,40.86118,-79.89533,PA,019,5182534
Carlisle,40.20148,-77.18887,PA,041,5183234
Clarion,41.21479,-79.38532,PA,031,5184422
Clearfield,41.02728,-78.43919,PA,033,5184541
Coudersport,41.77479,-78.02056,PA,105,5185531
Danville,40.96342,-76.61273,PA,093,5186327
Doylestown,40.31011,-75.12989,PA,017,5187247
Easton,40.68843,-75.22073,PA,095,5188140
Ebensburg,40.48507,-78.72474,PA,021,5188193
Emporium,41.51145,-78.23529,PA,023,5188737
Erie,42.12922,-80.08506,PA,049,5188843
Franklin,41.39784,-79.83144,PA,121,5190323
Greensburg,40.30146,-79.53893,PA,129,5192029
Hollidaysburg,40.42729,-78.3889,PA,013,5193920
Honesdale,41.57676,-75.25879,PA,127,5194099
Huntingdon,40.4848,-78.01028,PA,061,5194590
Indiana,40.62146,-79.15253,PA,063,5194868
Jim Thorpe,40.87592,-75.73241,PA,025,5195460
Kittanning,40.81645,-79.52199,PA,005,5196357
Lancaster,40.03788,-76.30551,PA,071,5197079
Laporte,41.42397,-76.49411,PA,113,5197171
Lebanon,40.34093,-76.41135,PA,075,5197517
Lewisburg,40.96453,-76.88441,PA,119,5197842
Lewistown,40.59924,-77.57138,PA,087,5197850
Lock Haven,41.13701,-77.44693,PA,035,5198635
Meadville,41.64144,-80.15145,PA,039,5200644
Mercer,41.227,-80.23979,PA,085,5200798
Middleburg,40.78592,-77.0472,PA,109,5201006
Mifflintown,40.5698,-77.39693,PA,067,5201085
Milford,41.32232,-74.80239,PA,103,5201117
Montrose,41.83397,-75.87714,PA,115,5201805
New Bloomfield,40.41981,-77.18637,PA,099,5203112
New Castle,41.00367,-80.34701,PA,073,5203127
Norristown,40.1215,-75.3399,PA,091,5203506
Pittsburgh,40.44062,-79.99589,PA,003,5206379
Pottsville,40.68565,-76.1955,PA,107,5207080
Reading,40.33565,-75.92687,PA,011,5207728
Ridgway,41.42034,-78.72864,PA,047,5208292
Scranton,41.40916,-75.6649,PA,069,5211303
Smethport,41.81117,-78.44474,PA,083,5212582
Somerset,40.00841,-79.07808,PA,111,5212853
Sunbury,40.86259,-76.79441,PA,097,5214814
Tionesta,41.49534,-79.45588,PA,053,5215696
Towanda,41.76758,-76.44272,PA,015,5215859
Tunkhannock,41.53869,-75.94659,PA,131,5216260
Warren,41.84395,-79.14504,PA,123,5218023
Washington,40.17396,-80.24617,PA,125,5218069
Wellsboro,41.74868,-77.30053,PA,117,5218450
Williamsport,41.24119,-77.00108,PA,081,5219585
Aberdeen,45.4647,-98.48648,SD,013,5225857
Alexandria,43.65359,-97.78285,SD,061,5225919
Armour,43.3186,-98.34675,SD,043,5226045
Britton,45.79162,-97.75094,SD,091,5226523
Brookings,44.31136,-96.79839,SD,011,5226534
Burke,43.1825,-99.29205,SD,053,5226625
Canton,43.30081,-96.59282,SD,083,5226716
Chamberlain,43.81083,-99.33066,SD,015,5226824
Clark,44.87774,-97.73314,SD,025,5226901
Clear Lake,44.7458,-96.68256,SD,039,5226932
De Smet,44.38747,-97.55035,SD,077,5227237
Elk Point,42.68333,-96.68365,SD,127,5227567
Faulkton,45.03497,-99.124,SD,049,5227753
Flandreau,44.04942,-96.59532,SD,101,5227802
Gettysburg,45.01165,-99.95567,SD,107,5228053
Highmore,44.52137,-99.4415,SD,069,5228476
Howard,44.01081,-97.52674,SD,097,5228623
Huron,44.36332,-98.21426,SD,005,5228673
Ipswich,45.44442,-99.02928,SD,045,5228742
Kennebec,43.9036,-99.86178,SD,085,5228958
Lake Andes,43.15638,-98.54147,SD,023,5229103
Leola,45.72275,-98.94094,SD,089,5229276
Madison,44.00608,-97.11395,SD,079,5229526
Milbank,45.21913,-96.63562,SD,051,5229737
Miller,44.51831,-98.98843,SD,059,5229751
Mitchell,43.70943,-98.0298,SD,035,5229794
Olivet,43.24082,-97.67534,SD,067,5230213
Parker,43.39748,-97.13645,SD,125,5230309
Plankinton,43.71555,-98.48509,SD,003,5230463
Redfield,44.87581,-98.51871,SD,115,5230743
Salem,43.72415,-97.38895,SD,087,5231228
Sioux Falls,43.54997,-96.70033,SD,099,5231851
Sisseton,45.66468,-97.0498,SD,109,5231863
Tyndall,42.99333,-97.86285,SD,009,5232489
Vermillion,42.77944,-96.92921,SD,027,5232592
Watertown,44.89941,-97.11507,SD,029,5232741
Webster,45.33218,-97.52009,SD,037,5232764
Wessington Springs,44.07916,-98.56954,SD,073,5232802
Winner,43.37667,-99.85901,SD,123,5232994
Woonsocket,44.0536,-98.27564,SD,111,5233037
Yankton,42.87111,-97.39728,SD,135,5233053
Burlington,44.47588,-73.21207,VT,007,5234372
Chelsea,43.98979,-72.4476,VT,017,5234814
Guildhall,44.56506,-71.55981,VT,009,5236698
Hyde Park,44.59394,-72.61651,VT,015,5237276
Middlebury (village),44.01553,-73.16937,VT,001,5238499
Newport,44.93644,-72.2051,VT,019,5239058
Newfane,42.98564,-72.65593,VT,025,5239071
North Hero,44.83125,-73.27323,VT,013,5239188
Rutland,43.61062,-72.97261,VT,021,5240509
Saint Albans,44.81088,-73.08319,VT,011,5240569
Saint Johnsbury,44.41922,-72.01509,VT,005,5240656
Woodstock,43.62424,-72.51843,VT,027,5243145
Alma,44.31997,-91.91488,WI,011,5243778
Antigo,45.14025,-89.15234,WI,067,5244010
Appleton,44.26193,-88.41538,WI,087,5244080
Ashland,46.59244,-90.8838,WI,003,5244247
Balsam Lake,45.45218,-92.45464,WI,095,5244607
Baraboo,43.47109,-89.74429,WI,111,5244638
Barron,45.40135,-91.84906,WI,005,5244738
Black River Falls,44.29468,-90.85153,WI,053,5246105
Chilton,44.02888,-88.16288,WI,015,5248469
Chippewa Falls,44.93691,-91.39293,WI,017,5248511
Crandon,45.57191,-88.90289,WI,041,5249670
Darlington,42.68306,-90.11763,WI,065,5250121
Dodgeville,42.96027,-90.13012,WI,049,5250703
Durand,44.62635,-91.96573,WI,091,5251056
Eagle River,45.91718,-89.2443,WI,125,5251171
Eau Claire,44.81135,-91.49849,WI,035,5251436
Elkhorn,42.67279,-88.54454,WI,127,5251729
Ellsworth,44.73219,-92.48741,WI,093,5251764
Florence,45.92218,-88.2518,WI,037,5253305
Fond du Lac,43.775,-88.43883,WI,039,5253352
Friendship,43.97053,-89.81679,WI,001,5253884
Green Bay,44.51916,-88.01983,WI,009,5254962
Green Lake,43.84415,-88.96011,WI,047,5255004
Hayward,46.01301,-91.48462,WI,113,5255882
Hudson,44.97469,-92.75687,WI,109,5257080
Hurley,46.44967,-90.18656,WI,051,5257163
Janesville,42.68279,-89.01872,WI,105,5257754
Jefferson,43.00556,-88.80733,WI,055,5257784
Juneau,43.40555,-88.7051,WI,027,5258190
Kenosha,42.58474,-87.82119,WI,059,5258393
Keshena,44.88387,-88.63372,WI,078,5258448
Kewaunee,44.45833,-87.50314,WI,061,5258490
La Crosse,43.80136,-91.23958,WI,063,5258957
Ladysmith,45.46302,-91.10404,WI,107,5259048
Lancaster,42.84749,-90.71068,WI,043,5259448
Manitowoc,44.08861,-87.65758,WI,071,5261585
Marinette,45.09998,-87.63066,WI,075,5261852
Mauston,43.79719,-90.07735,WI,057,5262113
Medford,45.13858,-90.34014,WI,119,5262475
Merrill,45.18052,-89.68346,WI,069,5262680
Milwaukee,43.0389,-87.90647,WI,079,5263045
Monroe,42.60112,-89.63845,WI,045,5263331
Montello,43.79137,-89.31984,WI,077,5263366
Neillsville,44.55996,-90.59625,WI,019,5264241
Oconto,44.88721,-87.86455,WI,083,5265515
Oshkosh,44.02471,-88.54261,WI,139,5265838
Phillips,45.69663,-90.40043,WI,099,5266764
Port Washington,43.38722,-87.87564,WI,089,5267776
Portage,43.53915,-89.46262,WI,021,5267785
Prairie du Chien,43.05165,-91.14124,WI,023,5268002
Racine,42.72613,-87.78285,WI,101,5268249
Rhinelander,45.63662,-89.41208,WI,085,5268720
Richland Center,43.33471,-90.38679,WI,103,5268850
Shawano,44.78221,-88.60899,WI,115,5272873
Sheboygan,43.75083,-87.71453,WI,117,5272893
Shell Lake,45.73939,-91.92545,WI,129,5272949
Siren,45.78578,-92.38103,WI,013,5273324
Sparta,43.94413,-90.81291,WI,081,5273927
Stevens Point,44.52358,-89.57456,WI,097,5274644
Sturgeon Bay,44.83416,-87.37704,WI,029,5274867
Superior,46.72077,-92.10408,WI,031,5275191
Viroqua,43.55692,-90.88874,WI,123,5277276
Washburn,46.67327,-90.89491,WI,007,5277856
Waukesha,43.01168,-88.23148,WI,133,5278052
Waupaca,44.35803,-89.08595,WI,135,5278083
Wausau,44.95914,-89.63012,WI,073,5278120
Wautoma,44.0747,-89.2879,WI,137,5278148
West Bend,43.42528,-88.18343,WI,131,5278422
Whitehall,44.36746,-91.31655,WI,121,5278914
Wisconsin Rapids,44.38358,-89.81735,WI,141,5279436
New Cumberland,40.49673,-80.60674,WV,029,5280523
Wellsburg,40.27201,-80.60952,WV,009,5280835
Wheeling,40.06396,-80.72091,WV,069,5280854
Holbrook,34.90225,-110.15818,AZ,017,5284580
Bisbee,31.44815,-109.92841,AZ,003,5284905
Dighton,38.48196,-100.46708,KS,101,5285480
Mora,35.9742,-105.33001,NM,033,5285666
Clifton,33.0509,-109.29618,AZ,011,5290124
Flagstaff,35.19807,-111.65127,AZ,005,5294810
Florence,33.03145,-111.38734,AZ,021,5294902
Globe,33.39422,-110.7865,AZ,007,5296013
Kingman,35.18944,-114.05301,AZ,015,5301067
Nogales,31.34038,-110.93425,AZ,023,5306611
Parker,34.15002,-114.28912,AZ,012,5308116
Prescott,34.54002,-112.4685,AZ,025,5309842
Safford,32.83395,-109.70758,AZ,009,5312476
Saint Johns,34.50587,-109.36093,AZ,001,5312595
Tucson,32.22174,-110.92648,AZ,019,5318313
Yuma,32.72532,-114.6244,AZ,027,5322053
Auburn,38.89657,-121.07689,CA,061,5325223
Bakersfield,35.37329,-119.01871,CA,029,5325738
Bridgeport,38.25575,-119.23127,CA,051,5330736
Colusa,39.21433,-122.00942,CA,011,5338866
Downieville,39.55934,-120.82689,CA,091,5343876
El Centro,32.792,-115.56305,CA,025,5345609
Fairfield,38.24936,-122.03997,CA,095,5347335
Fresno,36.74773,-119.77237,CA,019,5350937
Hanford,36.32745,-119.64568,CA,031,5355180
Hollister,36.85245,-121.4016,CA,069,5357499
Jackson,38.3488,-120.7741,CA,005,5360160
Lakeport,39.04295,-122.91583,CA,033,5364753
Los Angeles,34.05223,-118.24368,CA,037,5368361
Madera,36.96134,-120.06072,CA,039,5369568
Mariposa,37.48494,-119.96628,CA,043,5370590
Martinez,38.01937,-122.13413,CA,013,5370868
Marysville,39.14573,-121.59135,CA,115,5370984
Merced,37.30216,-120.48297,CA,047,5372253
Modesto,37.6391,-120.99688,CA,099,5373900
Napa,38.29714,-122.28553,CA,055,5376095
Nevada City,39.26173,-121.01779,CA,057,5376502
Oakland,37.80437,-122.2708,CA,001,5378538
Orange,33.78779,-117.85311,CA,059,5379513
Oroville,39.51394,-121.55776,CA,007,5379759
Placerville,38.72963,-120.79855,CA,017,5383559
Quincy,39.93682,-120.94647,CA,063,5385487
Redwood City,37.48522,-122.23635,CA,081,5386834
Riverside,33.95335,-117.39616,CA,065,5387877
Salinas,36.67774,-121.6555,CA,053,5391295
San Andreas,38.19603,-120.68049,CA,009,5391597
San Bernardino,34.10834,-117.28977,CA,071,5391710
San Diego,32.71571,-117.16472,CA,073,5391811
San Francisco,37.77493,-122.41942,CA,075,5391959
San Jose,37.33939,-121.89496,CA,085,5392171
San Luis Obispo,35.28275,-120.65962,CA,079,5392323
San Rafael,37.97353,-122.53109,CA,041,5392567
Santa Ana,33.74557,-117.86783,CA,059,5392900
Santa Barbara,34.42083,-119.69819,CA,083,5392952
Santa Cruz,36.97412,-122.0308,CA,087,5393052
Santa Rosa,38.44047,-122.71443,CA,097,5393287
Sonora,37.98409,-120.38214,CA,109,5397165
Stockton,37.9577,-121.29078,CA,077,5399020
Ukiah,39.15017,-123.20778,CA,045,5404476
Ventura,34.27834,-119.29317,CA,111,5405878
Visalia,36.33023,-119.29206,CA,107,5406567
Willows,39.52433,-122.19359,CA,021,5409777
Woodland,38.67852,-121.7733,CA,113,5410430
Yuba City,39.14045,-121.61691,CA,101,5411015
Alamosa,37.46945,-105.87002,CO,003,5411479
Aspen,39.1911,-106.81754,CO,097,5412230
Breckenridge,39.48165,-106.03835,CO,117,5414872
Brighton,39.98526,-104.82053,CO,001,5414941
Broomfield,39.92054,-105.08665,CO,014,5415035
Burlington,39.30611,-102.26936,CO,063,5415502
Castle Rock,39.37221,-104.85609,CO,035,5416329
Central City,39.80193,-105.51416,CO,047,5416606
Cheyenne Wells,38.8214,-102.35324,CO,017,5416855
Colorado Springs,38.83388,-104.82136,CO,041,5417598
Conejos,37.08835,-106.01974,CO,021,5417805
Cortez,37.34888,-108.58593,CO,083,5418104
Creede,37.84917,-106.92643,CO,079,5418493
Cripple Creek,38.74666,-105.17831,CO,119,5418552
Del Norte,37.67889,-106.35337,CO,105,5419302
Delta,38.74221,-108.06896,CO,029,5419334
Dove Creek,37.7661,-108.90594,CO,033,5419913
Durango,37.27528,-107.88007,CO,067,5420241
Eads,38.48056,-102.78186,CO,061,5420323
Eagle,39.65526,-106.82865,CO,037,5420328
Fairplay,39.22471,-106.00196,CO,093,5421506
Georgetown,39.7061,-105.6975,CO,019,5422889
Glenwood Springs,39.55054,-107.32478,CO,045,5423092
Golden,39.75554,-105.2211,CO,059,5423294
Grand Junction,39.06387,-108.55065,CO,077,5423573
Gunnison,38.54582,-106.92532,CO,051,5424099
Hugo,39.1361,-103.46994,CO,073,5425757
Kiowa,39.34721,-104.46441,CO,039,5427408
La Junta,37.98501,-103.54383,CO,089,5427705
Lake City,38.03,-107.31533,CO,053,5427796
Lamar,38.08723,-102.62075,CO,099,5427957
Las Animas,38.06667,-103.22271,CO,011,5428055
Leadville,39.25082,-106.29252,CO,065,5428184
Littleton,39.61332,-105.01665,CO,005,5429032
Montrose,38.47832,-107.87617,CO,085,5431710
Ordway,38.21806,-103.75606,CO,025,5433564
Ouray,38.02277,-107.67145,CO,091,5433676
Pagosa Springs,37.26945,-107.00976,CO,007,5433784
Pueblo,38.25445,-104.60914,CO,101,5435464
Saguache,38.0875,-106.14197,CO,109,5437349
Salida,38.53472,-105.9989,CO,015,5437555
San Luis,37.20085,-105.4239,CO,023,5437682
Silverton,37.81194,-107.66451,CO,111,5438881
Springfield,37.40835,-102.61436,CO,009,5440032
Telluride,37.93749,-107.81229,CO,113,5441199
Trinidad,37.16946,-104.50054,CO,071,5442007
Walsenburg,37.62418,-104.78026,CO,055,5443206
Westcliffe,38.13472,-105.46584,CO,027,5443889
Atwood,39.80667,-101.0421,KS,153,5444997
Colby,39.39584,-101.05238,KS,193,5445194
Dodge City,37.7528,-100.01708,KS,057,5445298
Elkhart,37.00808,-101.89017,KS,129,5445338
Garden City,37.97169,-100.87266,KS,055,5445439
Goodland,39.35083,-101.71017,KS,181,5445479
Gove,38.95779,-100.48875,KS,063,5445487
Hoxie,39.3575,-100.44181,KS,179,5445627
Hugoton,37.1753,-101.3496,KS,189,5445636
Lakin,37.94058,-101.25489,KS,093,5445780
Leoti,38.47974,-101.35877,KS,203,5445813
Liberal,37.04308,-100.921,KS,175,5445820
Meade,37.28558,-100.34015,KS,119,5445952
Oakley,39.13334,-100.86376,KS,193,5446091
Oberlin,39.81834,-100.5282,KS,039,5446098
Saint Francis,39.77222,-101.7999,KS,023,5446345
Scott City,38.48252,-100.90709,KS,171,5446450
Sharon Springs,38.89779,-101.75212,KS,199,5446453
Syracuse,37.98071,-101.7543,KS,075,5446613
Sublette,37.48169,-100.84377,KS,081,5446617
Tribune,38.46974,-101.75267,KS,071,5446643
Ulysses,37.58141,-101.35517,KS,067,5446683
Alamogordo,32.89953,-105.96027,NM,035,5454627
Albuquerque,35.08449,-106.65114,NM,001,5454711
Aztec,36.82223,-107.99285,NM,045,5456049
Bernalillo,35.30004,-106.55114,NM,043,5457198
Carlsbad,32.42067,-104.22884,NM,015,5460459
Carrizozo,33.64174,-105.87721,NM,027,5460567
Clayton,36.45169,-103.1841,NM,059,5462269
Clovis,34.4048,-103.20523,NM,009,5462393
Deming,32.2687,-107.75864,NM,029,5464806
Estancia,34.75839,-106.05585,NM,057,5467102
Fort Sumner,34.47173,-104.24553,NM,011,5468133
Gallup,35.52808,-108.74258,NM,031,5468773
Grants,35.1476,-107.85261,NM,006,5469841
Las Cruces,32.31232,-106.77834,NM,013,5475352
Las Vegas,35.59393,-105.2239,NM,047,5475433
Lordsburg,32.35036,-108.70866,NM,023,5476799
Los Alamos,35.88808,-106.30697,NM,028,5476825
Los Lunas,34.80617,-106.73336,NM,061,5476913
Lovington,32.94401,-103.34855,NM,025,5477090
Mosquero,35.77698,-103.95664,NM,021,5480275
Portales,34.18619,-103.3344,NM,041,5484874
Raton,36.90336,-104.43915,NM,007,5486795
Reserve,33.71311,-108.75784,NM,003,5487396
Roswell,33.39437,-104.52491,NM,005,5488441
Santa Rosa,34.93867,-104.68249,NM,019,5490338
Silver City,32.77007,-108.28033,NM,017,5491487
Socorro,34.0584,-106.89142,NM,053,5491999
Taos,36.40725,-105.57307,NM,055,5493811
Tierra Amarilla,36.70029,-106.54976,NM,039,5494507
Truth or Consequences,33.1284,-107.25281,NM,051,5495292
Tucumcari,35.17191,-103.72686,NM,037,5495360
Ely,39.24744,-114.88863,NV,033,5503694
Eureka,39.51271,-115.96061,NV,011,5503804
Fallon,39.47353,-118.77737,NV,001,5503914
Goldfield,37.70854,-117.23563,NV,009,5504812
Hawthorne,38.52464,-118.62458,NV,021,5505321
Las Vegas,36.17497,-115.13722,NV,003,5506956
Minden,38.95407,-119.76573,NV,005,5508379
Pioche,37.92969,-114.45221,NV,017,5510323
Reno,39.52963,-119.8138,NV,031,5511077
Tonopah,38.06716,-117.23008,NV,023,5513795
Virginia City,39.30963,-119.64962,NV,029,5514428
Yerington,38.98575,-119.16293,NV,019,5515507
Beaver,36.81614,-100.51987,OK,007,5515591
Boise City,36.72947,-102.51324,OK,025,5515613
Guymon,36.6828,-101.48155,OK,139,5515743
Alpine,30.35862,-103.66206,TX,043,5516203
Amarillo,35.222,-101.8313,TX,375,5516233
Andrews,32.31872,-102.54572,TX,003,5516288
Aspermont,33.13343,-100.22733,TX,433,5516487
Big Lake,31.19154,-101.46039,TX,383,5517030
Big Spring,32.2504,-101.47874,TX,227,5517061
Brackettville,29.31051,-100.41786,TX,271,5517550
Brownfield,33.1812,-102.27435,TX,445,5517675
Canadian,35.91282,-100.38208,TX,211,5518214
Canyon,34.98033,-101.9188,TX,381,5518239
Channing,35.68365,-102.3302,TX,205,5518692
Childress,34.42645,-100.204,TX,075,5518758
Clarendon,34.93783,-100.8882,TX,129,5519031
Claude,35.11172,-101.36322,TX,011,5519055
Colorado City,32.38817,-100.86456,TX,335,5519254
Crane,31.39736,-102.35014,TX,103,5519648
Crosbyton,33.66008,-101.23793,TX,107,5519719
Dalhart,36.05948,-102.51325,TX,111,5519862
Del Rio,29.36273,-100.89676,TX,465,5520076
Dickens,33.62175,-100.83652,TX,125,5520196
Dimmitt,34.5509,-102.31186,TX,069,5520201
Dumas,35.86559,-101.97324,TX,341,5520552
Eagle Pass,28.70914,-100.49952,TX,323,5520677
El Paso,31.75872,-106.48693,TX,141,5520993
Eldorado,30.86017,-100.60093,TX,413,5521036
Farwell,34.38341,-103.038,TX,369,5521353
Floydada,33.98452,-101.33766,TX,153,5521646
Fort Davis,30.58821,-103.89463,TX,243,5521715
Fort Stockton,30.89404,-102.87932,TX,371,5521746
Gail,32.77038,-101.44541,TX,033,5521972
Garden City,31.86402,-101.48123,TX,173,5522004
Guthrie,33.62064,-100.32289,TX,269,5522580
Hereford,34.81521,-102.39932,TX,117,5523074
Jayton,33.24815,-100.57373,TX,263,5523963
Kermit,31.85763,-103.09267,TX,495,5524527
Lamesa,32.7376,-101.95099,TX,115,5524849
Levelland,33.58732,-102.37796,TX,219,5525042
Littlefield,33.91731,-102.3249,TX,279,5525295
Lubbock,33.57786,-101.85517,TX,303,5525577
Marfa,30.30973,-104.02134,TX,377,5525775
Matador,34.01202,-100.82208,TX,345,5525856
Memphis,34.72478,-100.53401,TX,191,5526145
Mentone,31.70513,-103.59935,TX,301,5526156
Mertzon,31.26183,-100.81733,TX,235,5526174
Miami,35.69143,-100.63819,TX,393,5526233
Midland,31.99735,-102.07791,TX,329,5526337
Monahans,31.5943,-102.89265,TX,475,5526514
Morton,33.7251,-102.75938,TX,079,5526657
Muleshoe,34.22647,-102.72383,TX,017,5526805
Odessa,31.84568,-102.36764,TX,135,5527554
Ozona,30.71017,-101.20067,TX,105,5527870
Paducah,34.0123,-100.30206,TX,101,5527891
Pampa,35.53616,-100.95987,TX,179,5527953
Panhandle,35.3456,-101.38044,TX,065,5527980
Pecos,31.42291,-103.49323,TX,389,5528182
Perryton,36.40003,-100.80265,TX,357,5528274
Plains,33.18871,-102.82799,TX,501,5528440
Plainview,34.18479,-101.70684,TX,189,5528450
Post,33.19122,-101.379,TX,169,5528596
Rankin,31.22265,-101.93791,TX,461,5528921
Robert Lee,31.89237,-100.48482,TX,081,5529397
Roby,32.74483,-100.37761,TX,151,5529438
Rocksprings,30.01576,-100.20536,TX,137,5529514
San Angelo,31.46377,-100.43704,TX,451,5530022
Sanderson,30.14241,-102.39403,TX,443,5530210
Seminole,32.71899,-102.64491,TX,165,5530452
Sierra Blanca,31.17457,-105.35718,TX,229,5530688
Silverton,34.47423,-101.30461,TX,045,5530728
Snyder,32.71789,-100.91762,TX,415,5530921
Sonora,30.56685,-100.64343,TX,435,5531255
Spearman,36.19837,-101.19238,TX,195,5531553
Stanton,32.12929,-101.78846,TX,317,5531683
Sterling City,31.83625,-100.98483,TX,431,5531747
Stinnett,35.82698,-101.44294,TX,233,5531793
Stratford,36.33614,-102.07212,TX,421,5531815
Sweetwater,32.47095,-100.40594,TX,353,5531968
Tahoka,33.16676,-101.79377,TX,305,5532037
Tulia,34.53589,-101.75852,TX,437,5532610
Van Horn,31.04029,-104.83073,TX,109,5532924
Vega,35.24283,-102.42826,TX,359,5532945
Wellington,34.85617,-100.21373,TX,087,5533240
Wheeler,35.44533,-100.27096,TX,483,5533560
Beaver,38.27691,-112.64105,UT,001,5534882
Castle Dale,39.21219,-111.01961,UT,015,5536511
Fillmore,38.96885,-112.32355,UT,027,5539097
Junction,38.23748,-112.21993,UT,031,5541403
Kanab,37.04749,-112.52631,UT,025,5541458
Loa,38.40276,-111.64296,UT,055,5542323
Manti,39.2683,-111.63686,UT,039,5542758
Moab,38.57332,-109.54984,UT,019,5543307
Monticello,37.87138,-109.34289,UT,037,5543377
Nephi,39.71023,-111.83632,UT,023,5543853
Panguitch,37.82276,-112.43576,UT,017,5544525
Parowan,37.8422,-112.828,UT,021,5544619
Price,39.59941,-110.81071,UT,007,5545269
Richfield,38.77247,-112.08409,UT,041,5545710
Cimarron,37.80669,-100.3482,KS,069,5550452
Wray,40.07582,-102.22325,CO,125,5553755
Beach,46.91807,-104.00437,ND,033,5554419
Ketchikan,55.3418,-131.64757,AK,130,5554428
Sitka,57.05315,-135.33088,AK,220,5557293
Alturas,41.48714,-120.54349,CA,049,5558829
Crescent City,41.75595,-124.20175,CA,015,5562087
Eureka,40.80207,-124.16367,CA,023,5563397
Red Bluff,40.17849,-122.23583,CA,103,5570065
Redding,40.58654,-122.39168,CA,089,5570160
Susanville,40.41628,-120.65301,CA,035,5572400
Weaverville,40.73098,-122.94197,CA,105,5573443
Yreka,41.73542,-122.63447,CA,093,5574093
Akron,40.16054,-103.21438,CO,121,5574199
Boulder,40.01499,-105.27055,CO,013,5574991
Craig,40.51525,-107.54645,CO,081,5576064
Fort Collins,40.58526,-105.08442,CO,069,5577147
Fort Morgan,40.25026,-103.79995,CO,087,5577158
Greeley,40.42331,-104.70913,CO,123,5577592
Holyoke,40.58444,-102.30241,CO,095,5578099
Hot Sulphur Springs,40.07304,-106.1028,CO,049,5578171
Julesburg,40.98833,-102.26435,CO,115,5578567
Meeker,40.03747,-107.91313,CO,103,5579761
Steamboat Springs,40.48498,-106.83172,CO,107,5582371
Sterling,40.62554,-103.20771,CO,075,5582392
Walden,40.73164,-106.28364,CO,057,5583139
American Falls,42.78602,-112.85444,ID,077,5583981
Arco,43.63657,-113.30028,ID,023,5584200
Blackfoot,43.19047,-112.34498,ID,011,5586093
Bonners Ferry,48.69133,-116.31631,ID,021,5586496
Burley,42.53574,-113.79279,ID,031,5587385
Caldwell,43.66294,-116.68736,ID,027,5587698
Cascade,44.51628,-116.0418,ID,085,5588160
Challis,44.50464,-114.23173,ID,037,5588524
Council,44.72989,-116.4382,ID,003,5589857
Driggs,43.72325,-111.11133,ID,081,5591399
Dubois,44.1763,-112.23082,ID,033,5591649
Emmett,43.8735,-116.4993,ID,045,5592562
Fairfield,43.34657,-114.79173,ID,025,5592697
Gooding,42.93879,-114.71311,ID,047,5594307
Grangeville,45.92655,-116.12237,ID,049,5594474
Hailey,43.51963,-114.31532,ID,013,5594956
Idaho City,43.8285,-115.83455,ID,015,5596462
Idaho Falls,43.46658,-112.03414,ID,019,5596475
Jerome,42.72407,-114.51865,ID,053,5597034
Lewiston,46.41655,-117.01766,ID,069,5598538
Malad City,42.19159,-112.2508,ID,071,5600035
Moscow,46.73239,-117.00017,ID,057,5601538
Mountain Home,43.13295,-115.6912,ID,039,5601615
Murphy,43.21822,-116.55234,ID,073,5601827
Nezperce,46.23489,-116.2407,ID,061,5602128
Orofino,46.47935,-116.25514,ID,035,5602909
Paris,42.22715,-111.40104,ID,007,5603240
Payette,44.07822,-116.93377,ID,075,5603393
Pocatello,42.8713,-112.44553,ID,005,5604045
Preston,42.09631,-111.87662,ID,041,5604473
Rexburg,43.82602,-111.78969,ID,065,5605242
Rigby,43.67241,-111.91497,ID,051,5605321
Rupert,42.61908,-113.67723,ID,067,5606000
Saint Anthony,43.9663,-111.68218,ID,043,5606187
Saint Maries,47.31435,-116.56267,ID,009,5606232
Salmon,45.17575,-113.8959,ID,059,5606275
Sandpoint,48.27659,-116.55325,ID,017,5606401
Shoshone,42.93602,-114.40588,ID,063,5607205
Soda Springs,42.65437,-111.60467,ID,029,5607916
Twin Falls,42.56297,-114.46087,ID,083,5610810
Wallace,47.47409,-115.92794,ID,079,5611375
Weiser,44.251,-116.96933,ID,087,5611730
Anaconda,46.12854,-112.94226,MT,023,5637146
Baker,46.36695,-104.28466,MT,025,5638252
Big Timber,45.83494,-109.95546,MT,097,5640214
Billings,45.78329,-108.50069,MT,111,5640350
Boulder,46.23659,-112.12083,MT,043,5641473
Bozeman,45.67965,-111.03856,MT,031,5641727
Broadus,45.44387,-105.41133,MT,075,5642048
Butte,46.00382,-112.53474,MT,093,5642934
Chester,48.51054,-110.96747,MT,051,5644629
Chinook,48.59,-109.23128,MT,005,5644801
Choteau,47.81245,-112.18363,MT,099,5644844
Circle,47.41667,-105.59222,MT,055,5645114
Columbus,45.63661,-109.25211,MT,095,5645893
Conrad,48.17025,-111.94613,MT,073,5646101
Cut Bank,48.63304,-112.32616,MT,035,5647469
Deer Lodge,46.39576,-112.73004,MT,077,5648267
Dillon,45.21631,-112.63752,MT,001,5648657
Ekalaka,45.88889,-104.55273,MT,011,5650548
Forsyth,46.26638,-106.67781,MT,087,5652699
Fort Benton,47.8183,-110.66744,MT,015,5652763
Glasgow,48.19696,-106.63671,MT,105,5654320
Glendive,47.10529,-104.71246,MT,021,5654391
Great Falls,47.50024,-111.30081,MT,013,5655240
Hamilton,46.24687,-114.16037,MT,081,5655959
Hardin,45.73248,-107.61203,MT,003,5656170
Harlowton,46.43551,-109.83435,MT,107,5656214
Havre,48.55,-109.68409,MT,041,5656497
Hysham,46.29277,-107.23423,MT,103,5658541
Jordan,47.32083,-106.91007,MT,033,5659996
Kalispell,48.19579,-114.31291,MT,029,5660340
Lewistown,47.06247,-109.42824,MT,027,5662162
Libby,48.38829,-115.556,MT,053,5662190
Livingston,45.66244,-110.56104,MT,067,5663049
Malta,48.35972,-107.87428,MT,071,5664486
Miles City,46.40834,-105.84056,MT,017,5666176
Missoula,46.87215,-113.994,MT,063,5666639
Philipsburg,46.33215,-113.29423,MT,039,5671240
Plentywood,48.77475,-104.56246,MT,091,5671807
Polson,47.69355,-114.16317,MT,047,5671996
Red Lodge,45.18578,-109.24682,MT,009,5673390
Roundup,46.44524,-108.5418,MT,065,5674878
Ryegate,46.29718,-109.25879,MT,037,5675156
Scobey,48.79252,-105.42083,MT,019,5676740
Shelby,48.50526,-111.85697,MT,101,5677433
Sidney,47.71668,-104.15633,MT,083,5677735
Stanford,47.15358,-110.21826,MT,045,5680222
Superior,47.19159,-114.8918,MT,061,5681215
Terry,46.79306,-105.31221,MT,079,5681948
Thompson Falls,47.59489,-115.33834,MT,089,5682278
Townsend,46.3191,-111.5208,MT,007,5682902
Virginia City,45.29381,-111.94609,MT,057,5684558
White Sulphur Springs,46.54828,-110.90216,MT,059,5686092
Wibaux,46.98501,-104.18827,MT,109,5686290
Winnett,47.00276,-108.35207,MT,069,5686862
Wolf Point,48.09057,-105.64056,MT,085,5687028
Amidon,46.48223,-103.32185,ND,087,5687696
Bottineau,48.82723,-100.4457,ND,009,5688106
Bowbells,48.80308,-102.246,ND,013,5688119
Bowman,46.18306,-103.39491,ND,011,5688127
Carson,46.41778,-101.56487,ND,037,5688351
Center,47.11638,-101.29959,ND,065,5688397
Crosby,48.9142,-103.29491,ND,023,5688604
Dickinson,46.87918,-102.78962,ND,089,5688789
Fort Yates,46.08694,-100.63013,ND,085,5689173
Hettinger,46.00139,-102.63682,ND,001,5689618
Linton,46.26666,-100.23289,ND,029,5690186
Mandan,46.82666,-100.88958,ND,059,5690366
Manning,47.23001,-102.77019,ND,025,5690380
McClusky,47.48583,-100.44318,ND,083,5690418
Medora,46.9139,-103.52435,ND,007,5690471
Minot,48.23251,-101.29627,ND,101,5690532
Mohall,48.76336,-101.51322,ND,075,5690557
Mott,46.3725,-102.32711,ND,041,5690627
Stanley,48.31724,-102.39045,ND,061,5692337
Stanton,47.32111,-101.38155,ND,057,5692342
Towner,48.34583,-100.40541,ND,049,5692611
Washburn,47.28916,-101.02903,ND,055,5692806
Watford City,47.80224,-103.28325,ND,053,5692814
Williston,48.14697,-103.61797,ND,105,5692947
Alliance,42.10163,-102.87215,NE,013,5693164
Arthur,41.57165,-101.69156,NE,005,5693294
Benkelman,40.04916,-101.53294,NE,057,5693530
Bridgeport,41.66525,-103.0991,NE,123,5693833
Chadron,42.82942,-102.99991,NE,045,5694163
Chappell,41.09277,-102.47074,NE,049,5694218
Gering,41.8258,-103.6605,NE,157,5695604
Grant,40.84194,-101.72517,NE,135,5695792
Harrisburg,41.55636,-103.73856,NE,007,5695970
Harrison,42.68719,-103.88271,NE,165,5695974
Hayes Center,40.51084,-101.0196,NE,085,5696040
Hyannis,42.00054,-101.76184,NE,075,5696337
Imperial,40.51694,-101.64323,NE,029,5696354
Kimball,41.23581,-103.663,NE,105,5696715
McCook,40.20195,-100.62571,NE,145,5697383
Mullen,42.04278,-101.04266,NE,091,5697774
North Platte,41.12389,-100.76542,NE,111,5697939
Ogallala,41.12805,-101.71962,NE,101,5698040
Oshkosh,41.40498,-102.34436,NE,069,5698120
Rushville,42.71832,-102.46406,NE,161,5698819
Sidney,41.14276,-102.97798,NE,033,5699552
Stapleton,41.48028,-100.51292,NE,113,5699840
Stockville,40.53279,-100.38348,NE,063,5699898
Thedford,41.97833,-100.57625,NE,171,5700094
Trenton,40.17555,-101.01294,NE,087,5700168
Tryon,41.55277,-100.95765,NE,117,5700218
Valentine,42.87278,-100.55097,NE,031,5700344
Battle Mountain,40.64213,-116.93427,NV,015,5701361
Elko,40.83242,-115.76312,NV,007,5703670
Lovelock,40.17935,-118.47348,NV,027,5705957
Winnemucca,40.97296,-117.73568,NV,013,5710360
Albany,44.63651,-123.10593,OR,043,5710756
Astoria,46.18788,-123.83125,OR,007,5711847
Baker City,44.77487,-117.83438,OR,001,5712169
Bend,44.05817,-121.31531,OR,017,5713587
Burns,43.58626,-119.0541,OR,025,5716833
Canyon City,44.3896,-118.95023,OR,023,5717822
Condon,45.2343,-120.18503,OR,021,5720282
Coquille,43.17705,-124.18761,OR,011,5720575
Corvallis,44.56457,-123.26204,OR,003,5720727
Dallas,44.91928,-123.31705,OR,053,5722064
Enterprise,45.42626,-117.27878,OR,063,5725721
Eugene,44.05207,-123.08675,OR,039,5725846
Fossil,44.99819,-120.21614,OR,069,5727319
Grants Pass,42.43933,-123.33067,OR,033,5729080
Heppner,45.35318,-119.5578,OR,049,5731035
Hillsboro,45.52289,-122.98983,OR,067,5731371
Hood River,45.7054,-121.52146,OR,027,5731777
Klamath Falls,42.22487,-121.78167,OR,035,5735238
La Grande,45.32458,-118.08772,OR,061,5735537
Lakeview,42.18877,-120.34579,OR,037,5735792
Madras,44.63345,-121.12949,OR,031,5738690
McMinnville,45.21012,-123.19872,OR,071,5739936
Medford,42.32652,-122.87559,OR,029,5740099
Moro,45.48401,-120.73117,OR,055,5741487
Newport,44.63678,-124.05345,OR,041,5742750
Oregon City,45.35734,-122.60676,OR,005,5744253
Pendleton,45.67207,-118.7886,OR,059,5745380
Portland,45.52345,-122.67621,OR,051,5746545
Prineville,44.29985,-120.83447,OR,013,5746901
Roseburg,43.2165,-123.34174,OR,019,5749352
Saint Helens,45.864,-122.80649,OR,009,5750041
The Dalles,45.59456,-121.17868,OR,065,5756304
Tillamook,45.4564,-123.84553,OR,057,5756777
Vale,43.98211,-117.23823,OR,045,5758413
Belle Fourche,44.67137,-103.85215,SD,019,5762718
Bison,45.52026,-102.46127,SD,105,5762836
Buffalo,45.58416,-103.54603,SD,063,5763144
Custer,43.76665,-103.59881,SD,033,5763910
Deadwood,44.37665,-103.72964,SD,081,5764048
Dupree,45.04748,-101.60099,SD,137,5764313
Fort Pierre,44.35359,-100.37374,SD,117,5764864
Hot Springs,43.43165,-103.47436,SD,047,5765751
Kadoka,43.83388,-101.50987,SD,071,5766162
Martin,43.1725,-101.73265,SD,007,5766888
McIntosh,45.92139,-101.34958,SD,031,5766967
Mound City,45.72527,-100.06845,SD,021,5767241
Murdo,43.88832,-100.71291,SD,075,5767295
Onida,44.70804,-100.05984,SD,119,5767686
Philip,44.03943,-101.66514,SD,055,5767896
Rapid City,44.08054,-103.23101,SD,103,5768233
Selby,45.50638,-100.03207,SD,129,5768946
Sturgis,44.40971,-103.50908,SD,093,5769489
Timber Lake,45.42915,-101.07403,SD,041,5769772
White River,43.56805,-100.74542,SD,095,5770357
Brigham City,41.51021,-112.0155,UT,003,5771960
Coalville,40.91773,-111.39936,UT,043,5773066
Duchesne,40.16329,-110.40293,UT,013,5774135
Farmington,40.9805,-111.88744,UT,011,5774662
Logan,41.73549,-111.83439,UT,005,5777544
Manila,40.98801,-109.72265,UT,009,5777855
Morgan,41.03606,-111.67688,UT,029,5778518
Ogden,41.223,-111.97383,UT,057,5779206
Provo,40.23384,-111.65853,UT,049,5780026
Randolph,41.66578,-111.18214,UT,033,5780154
Tooele,40.53078,-112.29828,UT,045,5783695
Vernal,40.45552,-109.52875,UT,047,5784154
Asotin,46.33933,-117.04821,WA,003,5785933
Bellingham,48.75955,-122.48822,WA,073,5786899
Cathlamet,46.20317,-123.38318,WA,069,5789448
Chehalis,46.66205,-122.96402,WA,041,5789817
Colfax,46.88017,-117.36435,WA,075,5790554
Colville,48.54657,-117.90554,WA,065,5790660
Coupeville,48.21982,-122.68628,WA,029,5791132
Davenport,47.65405,-118.14997,WA,043,5791805
Dayton,46.32375,-117.97244,WA,013,5791896
Ellensburg,46.99651,-120.54785,WA,037,5793639
Ephrata,47.31764,-119.55365,WA,025,5793832
Everett,47.97898,-122.20208,WA,061,5793933
Friday Harbor,48.53427,-123.01712,WA,055,5795104
Goldendale,45.82068,-120.82173,WA,039,5795741
Kelso,46.14678,-122.90844,WA,015,5799571
Montesano,46.98121,-123.60266,WA,027,5803818
Mount Vernon,48.42122,-122.33405,WA,057,5804127
Newport,48.17963,-117.04326,WA,051,5804694
Okanogan,48.36126,-119.58339,WA,047,5805550
Pasco,46.23958,-119.10057,WA,021,5806298
Pomeroy,46.47487,-117.60269,WA,023,5807169
Port Angeles,48.11815,-123.43074,WA,009,5807212
Port Orchard,47.54037,-122.63625,WA,035,5807236
Port Townsend,48.11704,-122.76045,WA,031,5807239
Prosser,46.2068,-119.76892,WA,005,5807487
Republic,48.64822,-118.73781,WA,019,5808201
Ritzville,47.12755,-118.37999,WA,001,5808453
Seattle,47.60621,-122.33207,WA,033,5809844
Shelton,47.21509,-123.10071,WA,045,5810176
South Bend,46.66315,-123.80461,WA,049,5811211
Spokane,47.65966,-117.42908,WA,063,5811696
Stevenson,45.69567,-121.88452,WA,059,5812177
Tacoma,47.25288,-122.44429,WA,053,5812944
Vancouver,45.63873,-122.66149,WA,011,5814616
Walla Walla,46.06458,-118.34302,WA,071,5814916
Waterville,47.64708,-120.07118,WA,017,5815184
Wenatchee,47.42346,-120.31035,WA,007,5815342
Yakima,46.60207,-120.5059,WA,077,5816605
Basin,44.37996,-108.03899,WY,003,5817923
Buffalo,44.34831,-106.69894,WY,019,5819881
Casper,42.86663,-106.31308,WY,025,5820705
Cody,44.52634,-109.05653,WY,029,5821593
Douglas,42.75969,-105.38221,WY,009,5823516
Evanston,41.26828,-110.96324,WY,041,5824805
Gillette,44.29109,-105.50222,WY,005,5826027
Green River,41.52858,-109.46625,WY,037,5826559
Jackson,43.47993,-110.76243,WY,039,5828648
Kemmerer,41.79245,-110.53767,WY,023,5829425
Lander,42.83301,-108.73067,WY,013,5830007
Laramie,41.31137,-105.5911,WY,001,5830062
Lusk,42.76247,-104.45217,WY,027,5831333
Newcastle,43.8547,-104.20494,WY,045,5833349
Pinedale,42.86661,-109.86099,WY,035,5835178
Rawlins,41.79107,-107.23866,WY,007,5836068
Sheridan,44.79719,-106.95618,WY,033,5838198
Sundance,44.40637,-104.37578,WY,011,5840284
Thermopolis,43.64607,-108.21204,WY,017,5840846
Torrington,42.06246,-104.18439,WY,015,5841207
Wheatland,42.05407,-104.95295,WY,031,5842753
Worland,44.0169,-107.95537,WY,043,5843495
Gold Beach,42.40733,-124.42177,OR,015,5843997
Lihue,21.98121,-159.3721,HI,007,5850248
Wailuku,20.89133,-156.50604,HI,009,5854496
Hilo,19.72991,-155.09073,HI,001,5855927
Fairbanks,64.83778,-147.71639,AK,090,5861897
Kodiak,57.78852,-152.40533,AK,150,5866583
Kotzebue,66.89846,-162.59809,AK,188,5866726
Palmer,61.59941,-149.11456,AK,170,5871146
Sand Point,55.33655,-160.4988,AK,013,5873349
Anchorage,61.21806,-149.90028,AK,020,5879400
Barrow,71.29058,-156.78872,AK,185,5880054
Washington Street Courthouse Annex,34.80264,-86.97298,AL,083,11497201
